id,name,email,phoneNumber,province,city,address1,address2,postalCode,lat,lng,facebookGroupId,createdBy,creationDate,lastModifiedBy,lastModifiedDate,deleted,deletedBy,deleteDate,isRFP,isAffiliated,inLocator,website,operatingHours,contactName,contactTitle,contactEmail,contactPhoneNumber,numStaff,numVolunteers,numServedInPreviousYear,totalPoundsDistributedAnnually,description,instructions,facebookUrl,twitterUrl,instagramUrl,logoUrl,visualReferenceUrl,contacts,crmId,isActive,crmLastModifiedDate
043a72b1-986f-41d7-bcf9-903456b8f34e,Supportive Housing for Young Mothers (SHYM),,,Nova Scotia,Dartmouth,4 Mount Hope Avenue,,B2Y 4K1,44.6520077,-63.5465528,3043371965978026,4f50a487-2b75-4ddc-a709-e28d3ca8144a,2022-04-12T14:22:44.453461,4f50a487-2b75-4ddc-a709-e28d3ca8144a,2022-05-30T18:01:28.238723,False,,,False,False,True,,,,,,,,,,,,,,,,,,[],8e10cb43-6bba-ec11-9840-000d3af44164,True,2022-05-30T18:01:28.238723
0595e51d-07ac-41f8-bff0-3b04061c18c9,Cole Harbour Woodside United Church,,,Nova Scotia,Dartmouth,15 Bissett Road,,B2V 2T1,44.6715686,-63.4777631,941703563325987,4f50a487-2b75-4ddc-a709-e28d3ca8144a,2022-04-12T14:18:12.058625,f0bf0107-22af-4c64-afa0-0d44a761ecc1,2023-12-11T00:00:00,False,,,False,False,True,,,,,,,,,,,,,,,,,,[],620ccb43-6bba-ec11-9840-000d3af44164,True,2022-05-30T17:57:56.858752
0748e923-95ce-48fe-ab22-f49e9cf0cc90,Bridgewater Elementary School,,,Nova Scotia,Bridgewater,100 York St,,B4V 1R3,44.3770995,-64.5228324,495280035414937,4f50a487-2b75-4ddc-a709-e28d3ca8144a,2022-04-12T14:18:11.904871,4f50a487-2b75-4ddc-a709-e28d3ca8144a,2022-05-30T17:57:47.109515,False,,,False,False,True,,,,,,,,,,,,,,,,,,[],e80bcb43-6bba-ec11-9840-000d3af44164,True,2022-05-30T17:57:47.109515
08da68f6-dea0-491b-9d8a-289406dfe7c0,Adsum House,,,Nova Scotia,Halifax,2421 Brunswick Street,,B3K 2Z4,44.6562447,-63.5860386,1368977213619999,4f50a487-2b75-4ddc-a709-e28d3ca8144a,2022-04-12T14:18:01.584009,f0bf0107-22af-4c64-afa0-0d44a761ecc1,2023-12-11T00:00:00,False,,,False,False,True,,,,,,,,,,,,,,,,,,[],6e0bcb43-6bba-ec11-9840-000d3af44164,True,2022-05-30T17:57:36.347561
08e492d1-7664-4a0b-a7c3-2c614ed22207,Emmanuel Food Bank,,,Nova Scotia,Halifax,322 Herring Cove Rd,,B3R 1V4,44.6140768,-63.6158084,1168668407292665,4f50a487-2b75-4ddc-a709-e28d3ca8144a,2022-04-12T14:18:22.972386,f0bf0107-22af-4c64-afa0-0d44a761ecc1,2023-12-11T00:00:00,False,,,False,False,True,,,,,,,,,,,,,,,,,,[],c20ccb43-6bba-ec11-9840-000d3af44164,True,2022-05-30T17:58:05.434795
0b1d0125-765e-4a1f-a3f3-3e3e4c3196ef,Lunenburg Interchurch Food Bank,kcmcal@eastlink.ca,9025211078,NS,Lunenburg,283 Lincoln Street,,B0J 2C0,44.3773986,-64.3091352,1428271057591220,4f50a487-2b75-4ddc-a709-e28d3ca8144a,2022-04-12T14:18:46.545276,f0bf0107-22af-4c64-afa0-0d44a761ecc1,2024-09-17T20:25:59.058443,False,,,True,True,True,,,,,,,,,,,,,,,,,,[],120ecb43-6bba-ec11-9840-000d3af44164,True,2022-05-30T17:58:36.63316
0e4e4881-a212-47e5-82b7-e016c93bfe18,Eastern Shore Food Bank,,,Nova Scotia,Musquodobit Harbour,43 East Petpeswick Rd,,B0J 2L0,44.7849473,-63.1464438,382171833803506,4f50a487-2b75-4ddc-a709-e28d3ca8144a,2022-04-12T14:18:27.181827,f0bf0107-22af-4c64-afa0-0d44a761ecc1,2023-12-11T00:00:00,False,,,False,False,True,,,,,,,,,,,,,,,,,,[],b00ccb43-6bba-ec11-9840-000d3af44164,True,2022-05-30T17:58:03.580365
0e6708c0-190e-4e82-9b29-fb56f515dbe8,Marine Communities Food Bank Society,,,Nova Scotia,Head of Chezzetcook,5531 Highway #7,,B0J 1N0,44.7414567,-63.2528893,3103907603181581,4f50a487-2b75-4ddc-a709-e28d3ca8144a,2022-04-12T14:19:45.850435,f0bf0107-22af-4c64-afa0-0d44a761ecc1,2023-12-11T00:00:00,False,,,False,False,True,,,,,,,,,,,,,,,,,,[],300ecb43-6bba-ec11-9840-000d3af44164,True,2022-05-30T17:58:39.237638
114dcab1-974d-45fa-96b6-b5ab81987e21,John Martin Jr High,wanda.baker-hayward@hrce.ca,"(902) 464-2408, ext. 3601102",Nova Scotia,Dartmouth,7 Brule Street,,B3J 1Y2,44.6832216,-63.5883485,487889553053074,4f50a487-2b75-4ddc-a709-e28d3ca8144a,2022-04-12T14:18:30.907066,4f50a487-2b75-4ddc-a709-e28d3ca8144a,2024-01-12T17:31:52.716921,False,,,False,False,True,,,John Martin Junior High School Breakfast Program,,wanda.baker-hayward@hrce.ca,"(902) 464-2408, ext. 3601102",,,,,,,,,,,,"[{'id': '9e0bf359-7051-4bb3-8f11-47605ff6923c', 'branchId': '114dcab1-974d-45fa-96b6-b5ab81987e21', 'name': 'Public Contact', 'emailAddress': 'wanda.baker-hayward@hrce.ca', 'phoneNumber': '(902) 464-2408, ext. 3601102', 'contactName': 'John Martin Junior High School Breakfast Program', 'contactTitle': '', 'contactId': None, 'isDeleted': False, 'contactOrder': 0}]",aa0dcb43-6bba-ec11-9840-000d3af44164,True,2024-01-12T17:31:52.716921
142cfe67-6ece-43d4-a921-369a9e69560e,Highland Park Junior High School,hpjh@hrce.ca,9024935124,Nova Scotia,Halifax,3479 Robie Street,,B3K 4S4,44.6648859,-63.609312,941738246491102,4f50a487-2b75-4ddc-a709-e28d3ca8144a,2022-04-12T14:18:35.451284,4f50a487-2b75-4ddc-a709-e28d3ca8144a,2024-01-12T17:11:46.749862,False,,,False,False,True,,,Highland Park Junior High School,,hpjh@hrce.ca,9024935124,,,,,,,,,,,,"[{'id': '703d1e15-08f8-4d8a-a104-9c920075a5cb', 'branchId': '142cfe67-6ece-43d4-a921-369a9e69560e', 'name': 'Public Contact', 'emailAddress': 'hpjh@hrce.ca', 'phoneNumber': '9024935124', 'contactName': 'Highland Park Junior High School', 'contactTitle': '', 'contactId': None, 'isDeleted': False, 'contactOrder': 0}]",740dcb43-6bba-ec11-9840-000d3af44164,True,2024-01-12T17:11:46.749862
1765f302-9b85-4624-93e2-12b6de2bc201,Dalhousie University Student Union Food Bank,,,Nova Scotia,Halifax,1333 South Park Street,,B3J 2K9,44.6405746,-63.5782151,933315304025392,4f50a487-2b75-4ddc-a709-e28d3ca8144a,2022-04-12T14:18:25.726231,f0bf0107-22af-4c64-afa0-0d44a761ecc1,2023-12-11T00:00:00,False,,,False,False,True,,,,,,,,,,,,,,,,,,[],9a0ccb43-6bba-ec11-9840-000d3af44164,True,2022-05-30T17:58:01.326992
17673b69-4830-431d-855d-f3cacfc35aa3,Alcare Place,,,Nova Scotia,Halifax,1374 Robie Street,,B3H 3E2,44.6395023,-63.5866446,1324335231375558,4f50a487-2b75-4ddc-a709-e28d3ca8144a,2022-04-12T14:18:05.285701,4f50a487-2b75-4ddc-a709-e28d3ca8144a,2022-05-30T17:57:36.708593,False,,,False,False,True,,,,,,,,,,,,,,,,,,[],7e0bcb43-6bba-ec11-9840-000d3af44164,True,2022-05-30T17:57:36.708593
1acdb557-7864-4749-bf43-81ec7625b124,Gerald Hardy Memorial Society,,,Nova Scotia,Sheet Harbour,22657 Hwy 7,,B0J 3B0,44.917696,-62.5281757,750548052775686,4f50a487-2b75-4ddc-a709-e28d3ca8144a,2022-04-12T14:18:30.560484,f0bf0107-22af-4c64-afa0-0d44a761ecc1,2023-12-11T00:00:00,False,,,False,False,True,,,,,,,,,,,,,,,,,,[],1e0dcb43-6bba-ec11-9840-000d3af44164,True,2022-05-30T17:58:17.124204
1b128e34-e5fe-40fc-b517-a3ece9c3b374,Metro Non-Profit Housing Association Halifax (Welcome Housing),,,Nova Scotia,Dartmouth,75 Primrose St,Unit 101,B3A 4C9,44.6861738,-63.5820082,372159277982908,4f50a487-2b75-4ddc-a709-e28d3ca8144a,2022-04-12T14:18:41.279192,4f50a487-2b75-4ddc-a709-e28d3ca8144a,2022-05-30T17:58:41.90321,False,,,False,False,True,,,,,,,,,,,,,,,,,,[],4c0ecb43-6bba-ec11-9840-000d3af44164,True,2022-05-30T17:58:41.90321
1be38725-a142-4f20-adec-b6c3b3ca5a34,Dorchester Community Volunteer Action,,,New Brunswick,Dorchester,11 School Street,,E4K 2Z6,45.89578,-64.51748,368091955229846,4f50a487-2b75-4ddc-a709-e28d3ca8144a,2022-04-12T14:18:26.77975,4f50a487-2b75-4ddc-a709-e28d3ca8144a,2022-05-30T17:58:03.431564,False,,,False,False,True,,,,,,,,,,,,,,,,,,[],a60ccb43-6bba-ec11-9840-000d3af44164,True,2022-05-30T17:58:03.431564
1d73471a-98ad-4223-b09c-caa626af3929,The Alders by Adsum,,,Nova Scotia,Halifax,2380 Gottingen St,,B3K 3B9,44.6548568,-63.5879596,517537163312502,4f50a487-2b75-4ddc-a709-e28d3ca8144a,2022-04-12T14:22:45.044643,4f50a487-2b75-4ddc-a709-e28d3ca8144a,2022-05-30T18:01:28.072663,False,,,False,False,True,,,,,,,,,,,,,,,,,,[],a410cb43-6bba-ec11-9840-000d3af44164,True,2022-05-30T18:01:28.072663
1f6d57eb-20e4-44cc-8f01-840e8f297a47,Bayers Westwood Family Resource Centre,ed@bayerswestwoodfrc.com,,Nova Scotia,Halifax,3499 Mcalpine Ave,,B3L 3X9,44.6578883,-63.6214058,750800655466723,f0bf0107-22af-4c64-afa0-0d44a761ecc1,2020-09-28T17:52:17.620306,f0bf0107-22af-4c64-afa0-0d44a761ecc1,2023-12-11T00:00:00,False,,,False,True,True,,,,Executive Director,ed@bayerswestwoodfrc.com,,,,,,,,,,,,,[],bc0bcb43-6bba-ec11-9840-000d3af44164,True,2022-05-30T17:57:43.536959
2514d614-6ced-4937-aa56-bc07773a237c,Amherst Food Assistance Network,ce.ross@bellaliant.net,(902) 661-0677,NS,Amherst,5 King Street,,B4H 3Y6,45.8331274,-64.2117341,3267839856783909,4f50a487-2b75-4ddc-a709-e28d3ca8144a,2022-04-12T14:18:03.44058,f0bf0107-22af-4c64-afa0-0d44a761ecc1,2024-01-12T02:44:34.81335,False,,,True,False,True,,,,,,,,,,,,,,,,,,[],840bcb43-6bba-ec11-9840-000d3af44164,True,2022-05-30T17:57:36.4974
264bcad1-0fa4-4b4a-b5fb-70bb15e75430,Hantsport & Area Comm. Food Bank,foodbanksociety@gmail.com,902-352-3002,Nova Scotia,Hantsport,10 Foundry Road,,B0P 1P0,45.0686183,-64.1758572,1461961784221461,4f50a487-2b75-4ddc-a709-e28d3ca8144a,2022-04-12T14:18:21.653834,4f50a487-2b75-4ddc-a709-e28d3ca8144a,2024-01-12T17:02:57.413348,False,,,False,False,True,,,Hantsport & Area Community Food Bank Society,,foodbanksociety@gmail.com,902-352-3002,,,,,,,,,,,,"[{'id': '79aaac45-08e4-46c9-a684-b19d1163b467', 'branchId': '264bcad1-0fa4-4b4a-b5fb-70bb15e75430', 'name': 'Public Contact', 'emailAddress': 'foodbanksociety@gmail.com', 'phoneNumber': '902-352-3002', 'contactName': 'Hantsport & Area Community Food Bank Society', 'contactTitle': '', 'contactId': None, 'isDeleted': False, 'contactOrder': 0}]",560dcb43-6bba-ec11-9840-000d3af44164,True,2024-01-12T17:02:57.413348
2893e7c7-cab5-4d34-98a7-fcc060a6cbf8,St. Andrew's Sunday Supper,,,Nova Scotia,Halifax,6036 Coburg Rd,,B3H 1Y9,44.6397519,-63.5874663,649033239463615,4f50a487-2b75-4ddc-a709-e28d3ca8144a,2022-04-12T14:22:42.508108,4f50a487-2b75-4ddc-a709-e28d3ca8144a,2022-05-30T18:01:25.509027,False,,,False,False,True,,,,,,,,,,,,,,,,,,[],3410cb43-6bba-ec11-9840-000d3af44164,True,2022-05-30T18:01:25.509027
28ac8e8e-f698-4b2f-9679-4b235c42b284,Salvation Army - Truro,whitney.reid@salvationarmy.ca,,Nova Scotia,Truro,14 Outram Street,,B2N 7B8,45.3640117,-63.2749427,471345024104521,f0bf0107-22af-4c64-afa0-0d44a761ecc1,2021-10-20T15:01:17.602615,4f50a487-2b75-4ddc-a709-e28d3ca8144a,2022-05-30T18:01:21.801569,False,,,True,True,True,,,,,,,,,,,,,,,,,,[],ae0fcb43-6bba-ec11-9840-000d3af44164,True,2022-05-30T18:01:21.801569
28da7ca0-3486-40a7-8eec-070997dfaeba,Banque de Nourriture de Memramcook,,,New Brunswick,Memramcock,576 Rue Centrale,,E4K 3S7,45.9749603,-64.5656293,381942807122637,4f50a487-2b75-4ddc-a709-e28d3ca8144a,2022-04-12T14:18:06.290539,4f50a487-2b75-4ddc-a709-e28d3ca8144a,2022-05-30T17:57:41.943324,False,,,False,False,True,,,,,,,,,,,,,,,,,,[],a80bcb43-6bba-ec11-9840-000d3af44164,True,2022-05-30T17:57:41.943324
28eb433b-e77d-4e01-b2f4-92da0856042d,St. Matthews United Church Sunday Breakfast,,,Nova Scotia,Halifax,1479 Barrington Street,,B3J 1Z2,44.6438667,-63.5717849,1904332829752603,4f50a487-2b75-4ddc-a709-e28d3ca8144a,2022-04-12T14:22:43.096329,4f50a487-2b75-4ddc-a709-e28d3ca8144a,2022-05-30T18:01:27.530884,False,,,False,False,True,,,,,,,,,,,,,,,,,,[],5610cb43-6bba-ec11-9840-000d3af44164,True,2022-05-30T18:01:27.530884
2b40bc30-ffa5-446d-8124-d96756fdfd9d,Freedom Foundation of Nova Scotia,,,Nova Scotia,Dartmouth,15 Brule Street,,B3A 4G2,44.683365,-63.5873642,1165199730979828,4f50a487-2b75-4ddc-a709-e28d3ca8144a,2022-04-12T14:18:27.773719,4f50a487-2b75-4ddc-a709-e28d3ca8144a,2022-05-30T17:58:16.47959,False,,,False,False,True,,,,,,,,,,,,,,,,,,[],060dcb43-6bba-ec11-9840-000d3af44164,True,2022-05-30T17:58:16.47959
2b956d26-f908-4b6f-8ccc-ecfc79c05dd0,Bridgewater Interchurch Food Bank,papabear@ns.sympatico.ca,,Nova Scotia,Bridgewater,150 Churchill St,,B4V 1S2,44.3765167,-64.5253719,270063747466971,,2020-03-06T18:27:10.347103,f0bf0107-22af-4c64-afa0-0d44a761ecc1,2023-12-11T00:00:00,False,,,True,True,True,,,,,,,,,,,,,,,,,,[],ea0bcb43-6bba-ec11-9840-000d3af44164,True,2022-05-30T17:57:46.407566
2dc6bf5a-9ee8-4587-8257-537da435025b,Regional Independent Students Association,brockwellhouse@eastlink.ca,(902) 466-0249,Nova Scotia,Dartmouth,159 Prince Albert Rd.,,B2W 1M5,44.6745793,-63.5597696,1160635908056725,4f50a487-2b75-4ddc-a709-e28d3ca8144a,2022-04-12T14:20:13.577897,4f50a487-2b75-4ddc-a709-e28d3ca8144a,2024-01-12T19:28:15.170366,False,,,False,False,True,,,Regional Independent Students Association,,brockwellhouse@eastlink.ca,(902) 466-0249,,,,,,,,,,,,"[{'id': '4f96f21b-0fd9-47f7-93a9-1c38bd6d728c', 'branchId': '2dc6bf5a-9ee8-4587-8257-537da435025b', 'name': 'Public Contact', 'emailAddress': 'brockwellhouse@eastlink.ca', 'phoneNumber': '(902) 466-0249', 'contactName': 'Regional Independent Students Association', 'contactTitle': '', 'contactId': None, 'isDeleted': False, 'contactOrder': 0}]",2a0fcb43-6bba-ec11-9840-000d3af44164,True,2024-01-12T19:28:15.170366
2dcafa34-7e3e-4377-91da-43152176d225,Saint Mary's University Community Food Room,,,Nova Scotia,Halifax,923 Robie Street,,B3H 3C3,44.6313301,-63.5814571,399055745367247,4f50a487-2b75-4ddc-a709-e28d3ca8144a,2022-04-12T14:20:17.237131,4f50a487-2b75-4ddc-a709-e28d3ca8144a,2022-05-30T18:00:18.132691,False,,,False,False,True,,,,,,,,,,,,,,,,,,[],620fcb43-6bba-ec11-9840-000d3af44164,True,2022-05-30T18:00:18.132691
2e49f1b0-c21e-4451-bef0-b563aa981d2e,Dartmouth North Christian Food Bank,,,Nova Scotia,Dartmouth,27 Farrell St.,,B2Y 3Y3,44.678278,-63.5896692,954213818622747,4f50a487-2b75-4ddc-a709-e28d3ca8144a,2022-04-12T14:18:26.091081,f0bf0107-22af-4c64-afa0-0d44a761ecc1,2023-12-11T00:00:00,False,,,False,False,True,,,,,,,,,,,,,,,,,,[],9c0ccb43-6bba-ec11-9840-000d3af44164,True,2022-05-30T17:58:02.277049
2f3f6668-a204-43cb-8c62-9798a837d69b,New Germany Area Food Bank,,,Nova Scotia,New Germany,4960 Highway 10,,B0R 1E0,44.53925,-64.7116294,315473544006241,4f50a487-2b75-4ddc-a709-e28d3ca8144a,2022-04-12T14:19:57.452897,f0bf0107-22af-4c64-afa0-0d44a761ecc1,2023-12-11T00:00:00,False,,,False,False,True,,,,,,,,,,,,,,,,,,[],940ecb43-6bba-ec11-9840-000d3af44164,True,2022-05-30T17:58:49.892179
2fb0586a-c1f2-42fb-a19e-d2f0a1e96967,St. Agnes Junior High School Breakfast Program,,,Nova Scotia,Halifax,6981 Mumford Rd,,B3L 2H7,44.6474983,-63.6181465,355657469688285,4f50a487-2b75-4ddc-a709-e28d3ca8144a,2022-04-12T14:22:42.62544,4f50a487-2b75-4ddc-a709-e28d3ca8144a,2022-05-30T18:01:25.329369,False,,,False,False,True,,,,,,,,,,,,,,,,,,[],3010cb43-6bba-ec11-9840-000d3af44164,True,2022-05-30T18:01:25.32937
327cb7ea-7462-4a3b-a93b-b0a98088e859,Sackville and District Assistance Centre,hpatters@mta.ca,(506) 536-4164,NB,Sackville,9-B Willow Lane,,E4L 4P4,45.8967699,-64.36722,380224620673344,4f50a487-2b75-4ddc-a709-e28d3ca8144a,2022-04-12T14:19:56.930662,f0bf0107-22af-4c64-afa0-0d44a761ecc1,2023-12-13T00:00:00,False,,,True,False,True,,,,,,,,,,,,,,,,,,[],540fcb43-6bba-ec11-9840-000d3af44164,True,2022-05-30T18:00:17.917905
3a19ad51-19b9-47d7-8e21-9ed6271fa55a,The Salvation Army Dartmouth Community Church,Andrew.Wilson@SalvationArmy.ca,902-466-6176,Nova Scotia,Dartmouth,345 Pleasant Street,,B2Y 3S4,44.6511768,-63.5466399,3152365615003706,4f50a487-2b75-4ddc-a709-e28d3ca8144a,2022-04-12T14:22:46.270204,4f50a487-2b75-4ddc-a709-e28d3ca8144a,2024-01-12T14:31:42.391641,False,,,False,False,True,,,Encounter Community Church of The Salvation Army,,Andrew.Wilson@SalvationArmy.ca,902-466-6176,,,,,,,,,,,,"[{'id': '81d9379c-fa1a-4f5d-97ec-a738ff6dcd8d', 'branchId': '3a19ad51-19b9-47d7-8e21-9ed6271fa55a', 'name': 'Public Contact', 'emailAddress': 'Andrew.Wilson@SalvationArmy.ca', 'phoneNumber': '902-466-6176', 'contactName': 'Encounter Community Church of The Salvation Army', 'contactTitle': '', 'contactId': None, 'isDeleted': False, 'contactOrder': 0}]",d410cb43-6bba-ec11-9840-000d3af44164,True,2024-01-12T14:31:42.391641
3dc0fa23-be86-490d-9203-9cd60937938a,Shumilacke Food Bank Society,,,Nova Scotia,Shubenacadie,5 Millvillage Road,,B0N 2H0,45.0869591,-63.4092294,684799745900981,4f50a487-2b75-4ddc-a709-e28d3ca8144a,2022-04-12T14:22:41.383901,f0bf0107-22af-4c64-afa0-0d44a761ecc1,2023-12-11T00:00:00,False,,,False,False,True,,,,,,,,,,,,,,,,,,[],fa0fcb43-6bba-ec11-9840-000d3af44164,True,2022-05-30T18:01:24.870696
3e45478f-e4ea-41a8-b4ba-3e5061ba6f6e,Oxford & Area Food Bank Association,,,Nova Scotia,Oxford,127 Lr. Main Street,,B0M 1P0,45.7363881,-63.8673686,375412267818759,4f50a487-2b75-4ddc-a709-e28d3ca8144a,2022-04-12T14:18:43.625128,f0bf0107-22af-4c64-afa0-0d44a761ecc1,2023-12-11T00:00:00,False,,,False,False,True,,,,,,,,,,,,,,,,,,[],d00ecb43-6bba-ec11-9840-000d3af44164,True,2022-05-30T17:58:57.81908
40c4cf22-5fb1-45d7-8f62-c1f0f0a1d672,North Grove,,,Nova Scotia,Dartmouth,6 Primrose Street,Unit 115,B3A 4C5,44.6813803,-63.5859693,784114149216325,4f50a487-2b75-4ddc-a709-e28d3ca8144a,2022-04-12T14:20:00.893567,4f50a487-2b75-4ddc-a709-e28d3ca8144a,2022-05-30T17:58:51.892641,False,,,False,False,True,,,,,,,,,,,,,,,,,,[],ac0ecb43-6bba-ec11-9840-000d3af44164,True,2022-05-30T17:58:51.892641
41e7b292-0f4e-41e1-bfc9-5a1f84c6dff5,MetroWorks Employment Association,,,Nova Scotia,Halifax,7071 Bayers Road,Suite LL05,B3L 2C2,44.6543476,-63.6275685,1780000249009241,4f50a487-2b75-4ddc-a709-e28d3ca8144a,2022-04-12T14:18:42.053298,4f50a487-2b75-4ddc-a709-e28d3ca8144a,2022-05-30T17:58:42.318427,False,,,False,False,True,,,,,,,,,,,,,,,,,,[],4e0ecb43-6bba-ec11-9840-000d3af44164,True,2022-05-30T17:58:42.318427
423fe441-8a53-470a-981c-2551a864b082,Welcome Housing and Support Services - Dartmouth,info@welcomehousing.ca,(902) 233-7345,Nova Scotia,DARTMOUTH,75 Pinecrest Drive,,B3A 4C9,44.6850506,-63.5833401,302124028662603,4f50a487-2b75-4ddc-a709-e28d3ca8144a,2022-04-12T14:22:50.918153,4f50a487-2b75-4ddc-a709-e28d3ca8144a,2024-01-12T21:51:16.116226,False,,,False,False,True,,,Welcome Housing and Support Services (Dartmouth),,info@welcomehousing.ca,(902) 233-7345,,,,,,,,,,,,"[{'id': '6febe2c1-4d5d-49ac-9dd2-835340d7a7fb', 'branchId': '423fe441-8a53-470a-981c-2551a864b082', 'name': 'Public Contact', 'emailAddress': 'info@welcomehousing.ca', 'phoneNumber': '(902) 233-7345', 'contactName': 'Welcome Housing and Support Services (Dartmouth)', 'contactTitle': '', 'contactId': None, 'isDeleted': False, 'contactOrder': 0}]",4211cb43-6bba-ec11-9840-000d3af44164,True,2024-01-12T21:51:16.116226
4288f100-6682-499e-b93f-8b20aab0d9fe,Family SOS Association,info@familysos.ca,(902) 455-5515,Nova Scotia,Halifax,4 Cranberry Court,,B3R 2E5,44.5999169,-63.6131289,1104517420398643,4f50a487-2b75-4ddc-a709-e28d3ca8144a,2022-04-12T14:18:21.962952,4f50a487-2b75-4ddc-a709-e28d3ca8144a,2024-01-12T16:36:03.775455,False,,,False,False,True,,,Family SOS Association,,info@familysos.ca,(902) 455-5515,,,,,,,,,,,,"[{'id': '6b20745e-e481-4da6-ab65-84dcc51ff270', 'branchId': '4288f100-6682-499e-b93f-8b20aab0d9fe', 'name': 'Public Contact', 'emailAddress': 'info@familysos.ca', 'phoneNumber': '(902) 455-5515', 'contactName': 'Family SOS Association', 'contactTitle': '', 'contactId': None, 'isDeleted': False, 'contactOrder': 0}]",cc0ccb43-6bba-ec11-9840-000d3af44164,True,2024-01-12T16:36:03.775455
44913a3c-7fa6-497f-b07b-2c688c8604ef,The Ymca of Greater Halifax/ Dartmouth,tl.johannesson@halifax.ymca.ca,(902) 237-7490,Nova Scotia,Halifax,2269 Gottingen Street,,B3K 3B7,44.6539027,-63.5855842,402444797954587,4f50a487-2b75-4ddc-a709-e28d3ca8144a,2022-04-12T14:22:49.483928,4f50a487-2b75-4ddc-a709-e28d3ca8144a,2024-01-12T22:10:21.156122,False,,,False,False,True,,,YMCA of Greater Halifax/Dartmouth,,tl.johannesson@halifax.ymca.ca,(902) 237-7490,,,,,,,,,,,,"[{'id': '051c2475-1c99-49f5-ab2d-731a78b6dee4', 'branchId': '44913a3c-7fa6-497f-b07b-2c688c8604ef', 'name': 'Public Contact', 'emailAddress': 'tl.johannesson@halifax.ymca.ca', 'phoneNumber': '(902) 237-7490', 'contactName': 'YMCA of Greater Halifax/Dartmouth', 'contactTitle': '', 'contactId': None, 'isDeleted': False, 'contactOrder': 0}]",ea10cb43-6bba-ec11-9840-000d3af44164,True,2024-01-12T22:10:21.156122
4c5a1d67-47a3-472a-9ee9-281fee2bc812,Salvation Army Springhill Community Church,,,Nova Scotia,Springhill,93 Main Street,,B0M 1X0,45.6506631,-64.0562075,658710305418180,4f50a487-2b75-4ddc-a709-e28d3ca8144a,2022-04-12T14:22:37.094081,f0bf0107-22af-4c64-afa0-0d44a761ecc1,2023-12-11T00:00:00,False,,,False,False,True,,,,,,,,,,,,,,,,,,[],d20fcb43-6bba-ec11-9840-000d3af44164,True,2022-05-30T18:01:24.436149
4e417d96-e722-4207-a3ff-b6ce2b2289f8,Wolfville Area Food Bank,wolfvilleareafoodbank@gmail.com,9025420040,NS,Wolfville,487 Main Street,,B4P 1E3,45.0909175,-64.3641059,3166598856910936,4f50a487-2b75-4ddc-a709-e28d3ca8144a,2022-04-12T14:22:51.310445,f0bf0107-22af-4c64-afa0-0d44a761ecc1,2024-04-16T16:16:49.849097,False,,,True,True,True,,,,,,,,,,,,,,,,,,[],6411cb43-6bba-ec11-9840-000d3af44164,True,2022-05-30T18:01:34.062558
4f111919-f6a9-4a66-a8f6-be6cd1a054ef,Christ Church Food Bank,christchurch@christchurchdartmouth.com,(902) 222-8743,Nova Scotia,Dartmouth,61 Dundas Street,,B2Y 2H5,44.6680264,-63.5679679,312062757708006,4f50a487-2b75-4ddc-a709-e28d3ca8144a,2022-04-12T14:18:18.035262,4f50a487-2b75-4ddc-a709-e28d3ca8144a,2024-01-05T18:21:14.072582,False,,,False,False,True,,,Christ Church Food Bank,,christchurch@christchurchdartmouth.com,(902) 222-8743,,,,,,,,,,,,"[{'id': 'bd290d96-9253-4bb4-a9ca-1b68d228fc81', 'branchId': '4f111919-f6a9-4a66-a8f6-be6cd1a054ef', 'name': 'Public Contact', 'emailAddress': 'christchurch@christchurchdartmouth.com', 'phoneNumber': '(902) 222-8743', 'contactName': 'Christ Church Food Bank', 'contactTitle': '', 'contactId': None, 'isDeleted': False, 'contactOrder': 0}]",4c0ccb43-6bba-ec11-9840-000d3af44164,True,2024-01-05T18:21:14.072582
4fc71880-13f9-4f7f-a571-e8b9a9387005,Colchester Community Support Society,verafayeellis@hotmail.com,9028934566,NS,Truro,580 Prince Street,,B2N 1G3,45.3653609,-63.2841398,299300265359299,f0bf0107-22af-4c64-afa0-0d44a761ecc1,2021-10-20T15:15:12.095784,f0bf0107-22af-4c64-afa0-0d44a761ecc1,2024-09-17T20:16:26.223325,False,,,True,True,True,,,,,,,,,,,,,,,,,,[],5e0ccb43-6bba-ec11-9840-000d3af44164,True,2022-05-30T17:57:56.964533
5036ded7-6d0b-4ede-b9df-689cd50d4e20,St. Clements St. Vincent dePaul,,,Nova Scotia,Dartmouth,16 Gaston Rd,,B2Y 3W1,44.6664956,-63.5436347,987805432130126,4f50a487-2b75-4ddc-a709-e28d3ca8144a,2022-04-12T14:22:42.317666,4f50a487-2b75-4ddc-a709-e28d3ca8144a,2022-05-30T18:01:26.164318,False,,,False,False,True,,,,,,,,,,,,,,,,,,[],3810cb43-6bba-ec11-9840-000d3af44164,True,2022-05-30T18:01:26.164318
5068d165-e329-49c9-8ab2-e5b3b08a044c,East Dartmouth Christian Food Bank Association,,,Nova Scotia,Darmouth,54 Woodlawn Rd,,B2W 2S1,44.6787516,-63.5265879,1598811563836237,4f50a487-2b75-4ddc-a709-e28d3ca8144a,2022-04-12T14:18:26.92515,f0bf0107-22af-4c64-afa0-0d44a761ecc1,2023-12-11T00:00:00,False,,,False,False,True,,,,,,,,,,,,,,,,,,[],ac0ccb43-6bba-ec11-9840-000d3af44164,True,2022-05-30T17:58:03.578039
56d80dc8-e010-4f26-aa46-590bc2145ff5,Feeding Others of Dartmouth/Margaret's House,,,Nova Scotia,Dartmouth,43 Wentworth St,,B2Y 3V2,44.6672169,-63.5678928,359739229423490,4f50a487-2b75-4ddc-a709-e28d3ca8144a,2022-04-12T14:18:23.461697,4f50a487-2b75-4ddc-a709-e28d3ca8144a,2022-05-30T17:58:07.435805,False,,,False,False,True,,,,,,,,,,,,,,,,,,[],d80ccb43-6bba-ec11-9840-000d3af44164,True,2022-05-30T17:58:07.435805
58b4f37b-f21a-4df5-85e0-25532bcde8ce,Beacon House Interfaith Society,,,Nova Scotia,Lower Sackville,470 Cobequid Road,,B4C 4E8,44.7651375,-63.6497428,596456928444538,4f50a487-2b75-4ddc-a709-e28d3ca8144a,2022-04-12T14:18:08.049942,f0bf0107-22af-4c64-afa0-0d44a761ecc1,2023-12-11T00:00:00,False,,,False,False,True,,,,,,,,,,,,,,,,,,[],be0bcb43-6bba-ec11-9840-000d3af44164,True,2022-05-30T17:57:44.636184
5c0616d2-401b-4700-9eb2-4a453e145619,St. Paul's Family Resource Institute,,,Nova Scotia,Halifax,173 Old Sambro Road,,B3R 2H6,44.6103731,-63.6249876,392930195735522,4f50a487-2b75-4ddc-a709-e28d3ca8144a,2022-04-12T14:22:43.463035,f0bf0107-22af-4c64-afa0-0d44a761ecc1,2023-12-11T00:00:00,False,,,False,False,True,,,,,,,,,,,,,,,,,,[],6010cb43-6bba-ec11-9840-000d3af44164,True,2022-05-30T18:01:26.710471
5d34bf0e-9b42-4e18-b90d-ac79a037a279,Lockview High School Food Bank,,,Nova Scotia,Fall River,148 Lockview Rd,,B2T 1J1,44.8234569,-63.6195633,5118719684884684,4f50a487-2b75-4ddc-a709-e28d3ca8144a,2022-04-12T14:18:42.784173,4f50a487-2b75-4ddc-a709-e28d3ca8144a,2022-05-30T17:58:36.183361,False,,,False,False,True,,,,,,,,,,,,,,,,,,[],080ecb43-6bba-ec11-9840-000d3af44164,True,2022-05-30T17:58:36.183362
60ce27f4-1c36-4e67-8a30-427456fede70,Salvation Army Family Services (Halifax),,,Nova Scotia,Halifax,2038 Gottingen Street,,B3K 3A9,44.6509673,-63.5820767,1241617629913443,4f50a487-2b75-4ddc-a709-e28d3ca8144a,2022-04-12T14:20:17.416284,f0bf0107-22af-4c64-afa0-0d44a761ecc1,2023-12-11T00:00:00,False,,,False,False,True,,,,,,,,,,,,,,,,,,[],c60fcb43-6bba-ec11-9840-000d3af44164,True,2022-05-30T18:01:23.327734
61793c91-0d59-4c12-a172-a767f5123ebc,Bridgewater Junior High School Food For Thought Breakfast Program,,,Nova Scotia,Bridgewater,100 York St.,,B4V 1R3,44.3770995,-64.5228324,550207239783505,4f50a487-2b75-4ddc-a709-e28d3ca8144a,2022-04-12T14:18:11.700566,4f50a487-2b75-4ddc-a709-e28d3ca8144a,2022-05-30T17:57:46.539158,False,,,False,False,True,,,,,,,,,,,,,,,,,,[],ec0bcb43-6bba-ec11-9840-000d3af44164,True,2022-05-30T17:57:46.539159
64ebe709-71c3-4cee-920b-ee2bd8abe94d,Mi'kmaw Native Friendship Society,pam@mymnfc.com,(902) 420-1576,Nova Scotia,Halifax,2021 Brunswick Street,Suite # 209,B3K 2Y5,44.6517168,-63.5785854,1352348228567632,4f50a487-2b75-4ddc-a709-e28d3ca8144a,2022-04-12T14:19:46.118465,4f50a487-2b75-4ddc-a709-e28d3ca8144a,2024-01-12T18:17:26.431483,False,,,False,False,True,,,Mi'kmaw Native Friendship Society,,pam@mymnfc.com,(902) 420-1576,,,,,,,,,,,,"[{'id': 'ba4b9b08-0b13-42a4-99f8-bb0e8c7ce1a3', 'branchId': '64ebe709-71c3-4cee-920b-ee2bd8abe94d', 'name': 'Public Contact', 'emailAddress': 'pam@mymnfc.com', 'phoneNumber': '(902) 420-1576', 'contactName': ""Mi'kmaw Native Friendship Society"", 'contactTitle': '', 'contactId': None, 'isDeleted': False, 'contactOrder': 0}]",500ecb43-6bba-ec11-9840-000d3af44164,True,2024-01-12T18:17:26.431483
6627f26e-0a35-4ccf-b915-4c8801b44e0e,St. Margaret's Bay Food Bank,smbfoodbank@gmail.com,,Nova Scotia,Upper Tantallon,13495 Peggy's Cove Rd,,B3Z 2J4,44.6858524,-63.8852666,846927212923613,f0bf0107-22af-4c64-afa0-0d44a761ecc1,2021-06-30T15:24:24.381762,f0bf0107-22af-4c64-afa0-0d44a761ecc1,2023-12-11T00:00:00,False,,,True,True,True,,,,,,,,,,,,,,,,,,[],4c10cb43-6bba-ec11-9840-000d3af44164,True,2022-05-30T18:01:25.878988
66f84319-7a6e-420e-bb4c-85b8261179c3,Shelter Nova Scotia  - Sir Sandford Fleming House,,,Nova Scotia,Halifax,2549 Brunswick Street,,B3K 2Z5,44.6578921,-63.5885327,551223906718446,4f50a487-2b75-4ddc-a709-e28d3ca8144a,2022-05-30T18:01:24.362113,4f50a487-2b75-4ddc-a709-e28d3ca8144a,2022-05-30T18:01:29.265715,False,,,False,False,True,,,,,,,,,,,,,,,,,,[],f40fcb43-6bba-ec11-9840-000d3af44164,True,2022-05-30T18:01:29.265715
67d2a263-d26f-46bb-825f-1e5c417257a2,Shelter Nova Scotia - Metro Turning Point,,,Nova Scotia,Halifax,2170 Barrington Street,,B3K 2W4,44.6533162,-63.5811244,1032608463992496,4f50a487-2b75-4ddc-a709-e28d3ca8144a,2022-04-12T14:22:44.007665,4f50a487-2b75-4ddc-a709-e28d3ca8144a,2022-05-30T18:01:24.601165,False,,,False,False,True,,,,,,,,,,,,,,,,,,[],f60fcb43-6bba-ec11-9840-000d3af44164,True,2022-05-30T18:01:24.601165
720a4597-431f-4663-8e81-76eb48f1d016,St. George's YouthNet,director@stgeorgesyouthnet.ca,(416) 528-8282,Nova Scotia,Halifax,2221 Maitland St,,B3K 2Z3,44.6531744,-63.5834931,1587651231621958,4f50a487-2b75-4ddc-a709-e28d3ca8144a,2022-04-12T14:22:42.973037,4f50a487-2b75-4ddc-a709-e28d3ca8144a,2024-01-12T21:10:12.906603,False,,,False,False,True,,,St. George's YouthNet,,director@stgeorgesyouthnet.ca,(416) 528-8282,,,,,,,,,,,,"[{'id': 'c32af2e0-650f-411c-945b-2f585e0c1780', 'branchId': '720a4597-431f-4663-8e81-76eb48f1d016', 'name': 'Public Contact', 'emailAddress': 'director@stgeorgesyouthnet.ca', 'phoneNumber': '(416) 528-8282', 'contactName': ""St. George's YouthNet"", 'contactTitle': '', 'contactId': None, 'isDeleted': False, 'contactOrder': 0}]",4210cb43-6bba-ec11-9840-000d3af44164,True,2024-01-12T21:10:12.906603
746ff0e0-ac5d-4969-8768-bffc0bb9a316,Salvation Army Community & Family Services (New Glasgow),,,Nova Scotia,New Glasgow,134 James Street,,B2H 5E3,45.58748,-62.6430318,790934621868803,4f50a487-2b75-4ddc-a709-e28d3ca8144a,2022-04-12T14:20:17.350148,4f50a487-2b75-4ddc-a709-e28d3ca8144a,2022-05-30T18:01:23.052168,False,,,False,False,True,,,,,,,,,,,,,,,,,,[],c00fcb43-6bba-ec11-9840-000d3af44164,True,2022-05-30T18:01:23.052168
787f7726-28a6-4aa9-82a3-db109d821fd2,Brunswick Street Mission Food Bank,,,Nova Scotia,Halifax,2107 Brunswick Street,,B3K 2Y4,44.6529346,-63.5812263,381526727206047,4f50a487-2b75-4ddc-a709-e28d3ca8144a,2022-04-12T14:18:16.619814,f0bf0107-22af-4c64-afa0-0d44a761ecc1,2023-12-11T00:00:00,False,,,False,False,True,,,,,,,,,,,,,,,,,,[],fa0bcb43-6bba-ec11-9840-000d3af44164,True,2022-05-30T17:57:48.601373
7cda0552-5eb3-4c17-b177-0c5902404019,HALIFAX WEST ECUMENICAL FOOD BANK,harold.smith39@icloud.com,(902) 445-3469,Nova Scotia,Halifax,50 Gesner St.,C/O Salvation Army,B3M 3H2,44.6509328,-63.6489095,361992859030979,4f50a487-2b75-4ddc-a709-e28d3ca8144a,2022-04-12T14:18:31.179587,4f50a487-2b75-4ddc-a709-e28d3ca8144a,2024-01-12T16:57:59.799683,False,,,False,False,True,,,Halifax West Ecumenical Food Bank,,harold.smith39@icloud.com,(902) 445-3469,,,,,,,,,,,,"[{'id': '6fd90574-b5ba-4fcf-8111-361c490643f7', 'branchId': '7cda0552-5eb3-4c17-b177-0c5902404019', 'name': 'Public Contact', 'emailAddress': 'harold.smith39@icloud.com', 'phoneNumber': '(902) 445-3469', 'contactName': 'Halifax West Ecumenical Food Bank', 'contactTitle': '', 'contactId': None, 'isDeleted': False, 'contactOrder': 0}]",4e0dcb43-6bba-ec11-9840-000d3af44164,True,2024-01-12T16:57:59.799683
7d4e5c7c-849a-4453-9d43-cce38e29eddd,HRCE- BFEC,vwhite@hrce.ca,902-832-8428,Nova Scotia,Dartmouth,136 Pinecrest Drive,,B3A 2J9,44.683346,-63.5882249,1217475259001127,4f50a487-2b75-4ddc-a709-e28d3ca8144a,2022-04-12T14:18:36.401905,4f50a487-2b75-4ddc-a709-e28d3ca8144a,2024-01-12T22:12:16.799655,False,,,False,False,True,,,BFEC - Forsyth Education Centre,,vwhite@hrce.ca,902-832-8428,,,,,,,,,,,,"[{'id': 'c6353072-6ea3-40d1-b7a5-e3230a6536de', 'branchId': '7d4e5c7c-849a-4453-9d43-cce38e29eddd', 'name': 'Public Contact', 'emailAddress': 'vwhite@hrce.ca', 'phoneNumber': '902-832-8428', 'contactName': 'BFEC - Forsyth Education Centre', 'contactTitle': '', 'contactId': None, 'isDeleted': False, 'contactOrder': 0}]",8c0dcb43-6bba-ec11-9840-000d3af44164,True,2024-01-12T22:12:16.799655
8155d852-2346-425c-b5de-33c81cec1021,St. Mark's Food Bank,,,Nova Scotia,Halifax,5522 Russell St,,B3K 1X2,44.6611013,-63.597491,749259369722624,4f50a487-2b75-4ddc-a709-e28d3ca8144a,2022-04-12T14:22:43.006033,f0bf0107-22af-4c64-afa0-0d44a761ecc1,2023-12-11T00:00:00,False,,,False,False,True,,,,,,,,,,,,,,,,,,[],5210cb43-6bba-ec11-9840-000d3af44164,True,2022-05-30T18:01:26.635479
87376df7-c818-4c40-a8a7-a82365fe9268,Westend Community Food Bank,,,Nova Scotia,Halifax,3495 Mcalpine Avenue,,B3L 3X9,44.6577949,-63.6214454,1814675008738809,4f50a487-2b75-4ddc-a709-e28d3ca8144a,2022-04-12T14:22:50.902897,f0bf0107-22af-4c64-afa0-0d44a761ecc1,2023-12-13T00:00:00,False,,,False,False,True,,,,,,,,,,,,,,,,,,[],4c11cb43-6bba-ec11-9840-000d3af44164,True,2022-05-30T18:01:33.278119
8d9835bf-4b62-4851-ad6e-da8163e2cbd2,Windsor & District Food Bank,matthew25windsor@gmail.com,,Nova Scotia,Windsor,90 Sanford Drive,,B0N 2T0,44.9913644,-64.1045927,302716791379615,f0bf0107-22af-4c64-afa0-0d44a761ecc1,2021-10-20T14:41:23.628675,f0bf0107-22af-4c64-afa0-0d44a761ecc1,2023-12-11T00:00:00,False,,,True,True,True,,,,,,,,,,,,,,,,,,[],6011cb43-6bba-ec11-9840-000d3af44164,True,2022-05-30T18:01:33.926138
94db1422-6c2f-4156-908a-43370b4fe1ed,Connections Halifax,,,Nova Scotia,Halifax,1221 Barrington St,,B3J 1Y2,44.640421,-63.5703158,346771084098832,4f50a487-2b75-4ddc-a709-e28d3ca8144a,2022-04-12T14:18:22.958967,4f50a487-2b75-4ddc-a709-e28d3ca8144a,2022-05-30T17:58:00.604065,False,,,False,False,True,,,,,,,,,,,,,,,,,,[],820ccb43-6bba-ec11-9840-000d3af44164,True,2022-05-30T17:58:00.604065
9a4ef5be-19d2-4b31-a790-0363a8d5e4a5,Saint James Dartmouth Food Bank,,,Nova Scotia,Dartmouth,181 Portland Street,,B2Y 1J5,44.6680026,-63.5634121,478965924017829,4f50a487-2b75-4ddc-a709-e28d3ca8144a,2022-04-12T14:19:58.070502,f0bf0107-22af-4c64-afa0-0d44a761ecc1,2023-12-11T00:00:00,False,,,False,False,True,,,,,,,,,,,,,,,,,,[],5a0fcb43-6bba-ec11-9840-000d3af44164,True,2022-05-30T18:00:17.336657
9c60438b-34ab-44a1-8c85-09caa65e76ef,FEED Nova Scotia,kcasey@feednovascotia.ca,,Nova Scotia,Dartmouth,67 Wright Ave,,B3B 1H2,44.7036847,-63.5995826,125496022878984,f0bf0107-22af-4c64-afa0-0d44a761ecc1,2021-04-01T13:04:48.666586,f0bf0107-22af-4c64-afa0-0d44a761ecc1,2023-12-13T00:00:00,False,,,True,True,True,,,,,,,,,,,,,,,,,,[],d20ccb43-6bba-ec11-9840-000d3af44164,True,2022-05-30T17:58:07.498055
a0598662-8765-4551-949e-cb1894272479,Sipeknekatik Food Bank (formerly Indian Brook Food Bank),Sipeknekatikfoodbank@sipeknekatik.ca,(902) 758-4595,Nova Scotia,Indian Brook,185 Sesame St,Indian Brook Community Centre,B0N 1W0,45.0960922,-63.4905929,1158485171585818,4f50a487-2b75-4ddc-a709-e28d3ca8144a,2022-04-12T14:18:37.635974,4f50a487-2b75-4ddc-a709-e28d3ca8144a,2024-01-12T20:53:48.051807,False,,,False,False,True,,,Sipeknekatik Food Bank (formerly Indian Brook Food Bank),,Sipeknekatikfoodbank@sipeknekatik.ca,(902) 758-4595,,,,,,,,,,,,"[{'id': '3d1f9df8-9a3c-4a21-b445-01e11bdb3260', 'branchId': 'a0598662-8765-4551-949e-cb1894272479', 'name': 'Public Contact', 'emailAddress': 'Sipeknekatikfoodbank@sipeknekatik.ca', 'phoneNumber': '(902) 758-4595', 'contactName': 'Sipeknekatik Food Bank (formerly Indian Brook Food Bank)', 'contactTitle': '', 'contactId': None, 'isDeleted': False, 'contactOrder': 0}]",980dcb43-6bba-ec11-9840-000d3af44164,True,2024-01-12T20:53:48.051807
a1e80c56-3920-4f1c-9d21-fdb1f0d340a2,Mount Saint Vincent University Student Food Bank,,,Nova Scotia,Halifax,166 Bedford Highway,,B3M 2J6,44.6720401,-63.6450076,1169740143792849,4f50a487-2b75-4ddc-a709-e28d3ca8144a,2022-04-12T14:19:53.454018,4f50a487-2b75-4ddc-a709-e28d3ca8144a,2022-05-30T17:58:47.001745,False,,,False,False,True,,,,,,,,,,,,,,,,,,[],800ecb43-6bba-ec11-9840-000d3af44164,True,2022-05-30T17:58:47.001745
a75b4133-9af0-40d7-ae69-9b977a663f28,Stepping Stone Association,,,Nova Scotia,Dartmouth,9 Ferguson Road,,B3A 4J8,44.6809186,-63.5968256,3257759957786656,4f50a487-2b75-4ddc-a709-e28d3ca8144a,2022-04-12T14:22:44.31232,4f50a487-2b75-4ddc-a709-e28d3ca8144a,2022-05-30T18:01:27.307268,False,,,False,False,True,,,,,,,,,,,,,,,,,,[],7610cb43-6bba-ec11-9840-000d3af44164,True,2022-05-30T18:01:27.307269
a97fa035-376e-4016-a563-74586f67959e,Canning Area Food Bank,canningfoodbank@gmail.com,(902) 582-7860,NS,Canning,1000 Seminary Ave,,B0P 1H0,45.1591874,-64.4192726,4022589764506917,f0bf0107-22af-4c64-afa0-0d44a761ecc1,2021-07-12T20:32:00.34818,f0bf0107-22af-4c64-afa0-0d44a761ecc1,2024-01-12T01:56:48.553065,False,,,True,True,True,,,Canning Area Food Bank,TREASURER,canningfoodbank@gmail.com,(902) 582-7860,,18.0,3006.0,146100.0,,,,,,,,"[{'id': 'ba17f1f4-0e07-43f4-a976-5c570f9b4767', 'branchId': 'a97fa035-376e-4016-a563-74586f67959e', 'name': 'Public Contact', 'emailAddress': 'canningfoodbank@gmail.com', 'phoneNumber': '(902) 582-7860', 'contactName': 'Canning Area Food Bank', 'contactTitle': '', 'contactId': None, 'isDeleted': False, 'contactOrder': 0}]",140ccb43-6bba-ec11-9840-000d3af44164,True,2024-01-05T14:34:29.367687
ab3fea66-bdf4-467f-a9b1-8798d5a8910a,Prince Andrew High,,,Nova Scotia,Dartmouth,31 Woodlawn Rd,,B2W 2R7,44.6818949,-63.5262774,286550300323951,4f50a487-2b75-4ddc-a709-e28d3ca8144a,2022-04-12T14:20:11.247249,4f50a487-2b75-4ddc-a709-e28d3ca8144a,2022-05-30T17:59:07.616769,False,,,False,False,True,,,,,,,,,,,,,,,,,,[],100fcb43-6bba-ec11-9840-000d3af44164,True,2022-05-30T17:59:07.616769
b0875481-b731-4be3-8612-5e09f3397aa2,Phoenix Youth Program (Phoenix Centre),phoenix@phoenixyouth.ca,(902) 420-0676,Nova Scotia,Halifax,6035 Coburg Road,,B3H 1Y8,44.6401101,-63.5877762,901583880641252,4f50a487-2b75-4ddc-a709-e28d3ca8144a,2022-04-12T14:20:06.109892,4f50a487-2b75-4ddc-a709-e28d3ca8144a,2024-01-12T18:57:14.4081,False,,,False,False,True,,,Phoenix Youth Programs (Phoenix Centre for Youth) - Coburg Road,,phoenix@phoenixyouth.ca,(902) 420-0676,,,,,,,,,,,,"[{'id': '832145b9-bf02-4b12-bca9-bb39d2675c21', 'branchId': 'b0875481-b731-4be3-8612-5e09f3397aa2', 'name': 'Public Contact', 'emailAddress': 'phoenix@phoenixyouth.ca', 'phoneNumber': '(902) 420-0676', 'contactName': 'Phoenix Youth Programs (Phoenix Centre for Youth) - Coburg Road', 'contactTitle': '', 'contactId': None, 'isDeleted': False, 'contactOrder': 0}]",ee0ecb43-6bba-ec11-9840-000d3af44164,True,2024-01-12T18:57:14.408101
b23ebea8-f95a-44dc-b921-81de8437cc4c,Hants North Community Food Bank,kimaburns@hotmail.com,(902)471-4277,Nova Scotia,Lattie's Brook,7070 Highway 236,,B0N 2L0,45.2359505,-63.5748312,1168633580632092,4f50a487-2b75-4ddc-a709-e28d3ca8144a,2022-04-12T14:18:20.146295,4f50a487-2b75-4ddc-a709-e28d3ca8144a,2024-01-12T17:00:32.389962,False,,,False,False,True,,,Hants North Community Food Bank,,kimaburns@hotmail.com,(902)471-4277,,,,,,,,,,,,"[{'id': '39bb94ea-23f2-44e2-a07b-d10b5bf509ad', 'branchId': 'b23ebea8-f95a-44dc-b921-81de8437cc4c', 'name': 'Public Contact', 'emailAddress': 'kimaburns@hotmail.com', 'phoneNumber': '(902)471-4277', 'contactName': 'Hants North Community Food Bank', 'contactTitle': '', 'contactId': None, 'isDeleted': False, 'contactOrder': 0}]",540dcb43-6bba-ec11-9840-000d3af44164,True,2024-01-12T17:00:32.389962
b4ad5472-dd5c-4db5-b6e1-d624010dfcc1,Mainline Distribution and Disposal Program,jo.parker@mymainline.ca,(902) 423-9991,Nova Scotia,Halifax,5367 Cogswell Street,,NS B3J 3X5,44.6514483,-63.5784023,342258057752993,4f50a487-2b75-4ddc-a709-e28d3ca8144a,2022-04-12T14:18:47.050364,4f50a487-2b75-4ddc-a709-e28d3ca8144a,2024-01-12T17:48:03.726733,False,,,False,False,True,,,Mainline Needle Exchange,,jo.parker@mymainline.ca,(902) 423-9991,,,,,,,,,,,,"[{'id': 'bb06c2fe-4c98-4ad1-8bb6-3ff56a7bb2ff', 'branchId': 'b4ad5472-dd5c-4db5-b6e1-d624010dfcc1', 'name': 'Public Contact', 'emailAddress': 'jo.parker@mymainline.ca', 'phoneNumber': '(902) 423-9991', 'contactName': 'Mainline Needle Exchange', 'contactTitle': '', 'contactId': None, 'isDeleted': False, 'contactOrder': 0}]",200ecb43-6bba-ec11-9840-000d3af44164,True,2024-01-12T17:48:03.726733
b51a0319-f0cb-47ff-ae86-5e0a54be78fe,Fundy Interchurch Food Bank,fundy.foodbank.2020@gmail.com,,Nova Scotia,Kentville,50 Belcher St,,B4N 4H8,45.0803779,-64.4922725,297212195580797,f0bf0107-22af-4c64-afa0-0d44a761ecc1,2021-10-20T15:11:22.763616,4f50a487-2b75-4ddc-a709-e28d3ca8144a,2022-05-30T17:58:16.976651,False,,,True,True,True,,,,,,,,,,,,,,,,,,[],0c0dcb43-6bba-ec11-9840-000d3af44164,True,2022-05-30T17:58:16.976651
b7d45250-cc8f-4bf9-815a-f591778744b4,Caring & Sharing/ Angel Tree Food Bank,,,Nova Scotia,Enfield,50 Old Enfield Rd,Unit 2,B2T 1C9,44.9465,-63.53858,516103353526441,4f50a487-2b75-4ddc-a709-e28d3ca8144a,2022-04-12T14:18:13.131561,4f50a487-2b75-4ddc-a709-e28d3ca8144a,2022-05-30T17:57:52.608725,False,,,False,False,True,,,,,,,,,,,,,,,,,,[],160ccb43-6bba-ec11-9840-000d3af44164,True,2022-05-30T17:57:52.608726
b8dbe130-f527-4363-a298-c23dc06812e6,Alice House,,,Nova Scotia,Dartmouth,84 Ochterloney Street,,B2Y 3Y5,44.6675668,-63.5671372,1334611370383893,4f50a487-2b75-4ddc-a709-e28d3ca8144a,2022-04-12T14:18:02.737843,f0bf0107-22af-4c64-afa0-0d44a761ecc1,2023-12-11T00:00:00,False,,,False,False,True,,,,,,,,,,,,,,,,,,[],800bcb43-6bba-ec11-9840-000d3af44164,True,2022-05-30T17:57:37.875353
bbcc2f0f-c03c-46d8-aef4-6e46055ce3b8,Harvest House Community Outreach,dbeldridge@live.com,(902) 790-4560,Nova Scotia,Windsor,101 Stannus St,,B0N 2T0,44.9941068,-64.1378437,5340733522615796,4f50a487-2b75-4ddc-a709-e28d3ca8144a,2022-04-12T14:18:21.491915,4f50a487-2b75-4ddc-a709-e28d3ca8144a,2024-01-12T17:04:58.410024,False,,,False,False,True,,,Harvest House Community Outreach,,dbeldridge@live.com,(902) 790-4560,,,,,,,,,,,,"[{'id': '2dfac94e-c5b0-4d09-8c74-2884e184f5f5', 'branchId': 'bbcc2f0f-c03c-46d8-aef4-6e46055ce3b8', 'name': 'Public Contact', 'emailAddress': 'dbeldridge@live.com', 'phoneNumber': '(902) 790-4560', 'contactName': 'Harvest House Community Outreach', 'contactTitle': '', 'contactId': None, 'isDeleted': False, 'contactOrder': 0}]",580dcb43-6bba-ec11-9840-000d3af44164,True,2024-01-12T17:04:58.410024
bc89339c-2086-4168-bf75-8fe04714459a,North Dartmouth Outreach Resource Centre,,,Nova Scotia,Dartmouth,44 Hester Streer,,B3A 1K2,44.6727635,-63.5860841,704189967594112,4f50a487-2b75-4ddc-a709-e28d3ca8144a,2022-04-12T14:20:01.077625,f0bf0107-22af-4c64-afa0-0d44a761ecc1,2023-12-11T00:00:00,False,,,False,False,True,,,,,,,,,,,,,,,,,,[],a80ecb43-6bba-ec11-9840-000d3af44164,True,2022-05-30T17:58:51.915209
c047fe48-4e77-4f1c-9d60-7e0a104d90b0,Pictou County East Food Bank,pceastfb@outlook.com,(902) 771-0619,NS,New Glasgow,410 Granville Street,,B2H 4Z2,45.57869820000001,-62.63792399999999,263934814797605,,2020-03-06T18:27:10.451433,f0bf0107-22af-4c64-afa0-0d44a761ecc1,2024-05-22T15:27:00.100454,False,,,True,True,True,,,Pictou County (East) Food Bank,,pceastfb@outlook.com,(902) 771-0619,,,,,,,,,,,,"[{'id': 'fa715638-0b67-4871-99a1-c03aed84ef21', 'branchId': 'c047fe48-4e77-4f1c-9d60-7e0a104d90b0', 'name': 'Public Contact', 'emailAddress': 'pceastfb@outlook.com', 'phoneNumber': '(902) 771-0619', 'contactName': 'Pictou County (East) Food Bank', 'contactTitle': '', 'contactId': None, 'isDeleted': False, 'contactOrder': 0}]",f40ecb43-6bba-ec11-9840-000d3af44164,True,2024-01-12T19:07:39.092704
c1b36d72-bf6b-4191-8d0b-0a5107cb2b37,Lighthouse Food Bank Society,lighthousechester@hotmail.com,(902) 275-5304,NS,Chester,101 Valley Rd,,B0J 1J0,44.5459702,-64.2428826,682188186326522,4f50a487-2b75-4ddc-a709-e28d3ca8144a,2022-04-12T14:18:41.921997,f0bf0107-22af-4c64-afa0-0d44a761ecc1,2024-04-12T23:56:35.578845,False,,,True,True,True,,,,,,,,,,,,,,,,,,[],fa0dcb43-6bba-ec11-9840-000d3af44164,True,2022-05-30T17:58:34.150987
c360ef9b-18da-4ea7-a49a-99103dd9acc0,Parrsboro and Area Food Bank,,,Nova Scotia,Parrsboro,23 Church St,,B0M 1S0,45.4046615,-64.3255687,721005815740598,4f50a487-2b75-4ddc-a709-e28d3ca8144a,2022-04-12T14:19:46.535116,f0bf0107-22af-4c64-afa0-0d44a761ecc1,2023-12-11T00:00:00,False,,,False,False,True,,,,,,,,,,,,,,,,,,[],d80ecb43-6bba-ec11-9840-000d3af44164,True,2022-05-30T17:58:58.802352
c3c08d9b-acfb-487a-8d9f-2cf8fd2be767,Gateway Community Church,,,Nova Scotia,Lower Sackville,10 Beaver Bank Road,,B4E 1G3,44.777835,-63.6954151,1380025629108578,4f50a487-2b75-4ddc-a709-e28d3ca8144a,2022-04-12T14:18:29.958248,f0bf0107-22af-4c64-afa0-0d44a761ecc1,2023-12-11T00:00:00,False,,,False,False,True,,,,,,,,,,,,,,,,,,[],140dcb43-6bba-ec11-9840-000d3af44164,True,2022-05-30T17:58:16.814536
c51154e3-6382-4ead-b737-20694411ec65,The Salvation Army Center of Hope,,,Nova Scotia,Halifax,2044 Gottingen Street,,B3K 3A9,44.6509791,-63.5822705,532041548433004,4f50a487-2b75-4ddc-a709-e28d3ca8144a,2022-04-12T14:22:45.977767,4f50a487-2b75-4ddc-a709-e28d3ca8144a,2022-05-30T18:01:30.194548,False,,,False,False,True,,,,,,,,,,,,,,,,,,[],c810cb43-6bba-ec11-9840-000d3af44164,True,2022-05-30T18:01:30.194548
c702e2b5-83e7-4337-873a-fcf33eebd81b,Pugwash Open Hamper Food Bank,openhamper@gmail.com,(902) 664-8691,Nova Scotia,Pugwash,11103 Highway 6,,B0K 1L0,45.8397491,-63.6391988,367286858643824,4f50a487-2b75-4ddc-a709-e28d3ca8144a,2022-04-12T14:20:11.554911,4f50a487-2b75-4ddc-a709-e28d3ca8144a,2024-01-12T19:22:43.799304,False,,,False,False,True,,,Pugwash Open Hamper Food Bank,,openhamper@gmail.com,(902) 664-8691,,,,,,,,,,,,"[{'id': '2ce5a1e3-47c1-4f39-990c-da3eb97bd8a1', 'branchId': 'c702e2b5-83e7-4337-873a-fcf33eebd81b', 'name': 'Public Contact', 'emailAddress': 'openhamper@gmail.com', 'phoneNumber': '(902) 664-8691', 'contactName': 'Pugwash Open Hamper Food Bank', 'contactTitle': '', 'contactId': None, 'isDeleted': False, 'contactOrder': 0}]",160fcb43-6bba-ec11-9840-000d3af44164,True,2024-01-12T19:22:43.799304
c9600377-eb48-4a1a-9da4-328920e1272f,Neighbours helping neighbours,,,Nova Scotia,Tatamagouche,136 Blair Ave,,B0K 1V0,45.7109871,-63.2953206,344986410941106,4f50a487-2b75-4ddc-a709-e28d3ca8144a,2022-04-12T14:19:56.013085,f0bf0107-22af-4c64-afa0-0d44a761ecc1,2023-12-11T00:00:00,False,,,False,False,True,,,,,,,,,,,,,,,,,,[],8c0ecb43-6bba-ec11-9840-000d3af44164,True,2022-05-30T17:58:49.969689
ca0f8771-6aab-4220-bdb9-ee122226c44c,Shelter Nova Scotia  - Nehiley House,,,Nova Scotia,Halifax,3170 Romans Avenue,,B3L 3W9,44.6500246,-63.6217978,288128310181529,4f50a487-2b75-4ddc-a709-e28d3ca8144a,2022-04-12T14:22:41.273161,4f50a487-2b75-4ddc-a709-e28d3ca8144a,2022-05-30T18:01:25.051871,False,,,False,False,True,,,,,,,,,,,,,,,,,,[],f20fcb43-6bba-ec11-9840-000d3af44164,True,2022-05-30T18:01:25.051871
d11b461d-c317-45c5-900b-839024b8201d,Shelter Nova Scotia  - Barry House,,,Nova Scotia,Halifax,2706 Gottigen Street,,B3K 3C7,44.6586117,-63.5933428,348758887061600,4f50a487-2b75-4ddc-a709-e28d3ca8144a,2022-04-12T14:22:41.603041,4f50a487-2b75-4ddc-a709-e28d3ca8144a,2022-05-30T18:01:24.645876,False,,,False,False,True,,,,,,,,,,,,,,,,,,[],f00fcb43-6bba-ec11-9840-000d3af44164,True,2022-05-30T18:01:24.645876
d9ffba01-b489-4722-b533-809292963d96,Phoenix Youth Programs (House) - Hunter Street,phoenix@phoenixyouth.ca,(902) 422-5583,Nova Scotia,Halifax,2385 Hunter St,,B3K 4V7,44.6520364,-63.5952412,685333669374590,4f50a487-2b75-4ddc-a709-e28d3ca8144a,2022-04-12T14:20:06.091507,4f50a487-2b75-4ddc-a709-e28d3ca8144a,2024-01-12T19:02:13.308214,False,,,False,False,True,,,Phoenix Youth Programs (Phoenix Supportive Housing) - Hunter Street,,phoenix@phoenixyouth.ca,(902) 422-5583,,,,,,,,,,,,"[{'id': 'ec951f82-24ad-4349-9ff8-04e570871c8c', 'branchId': 'd9ffba01-b489-4722-b533-809292963d96', 'name': 'Public Contact', 'emailAddress': 'phoenix@phoenixyouth.ca', 'phoneNumber': '(902) 422-5583', 'contactName': 'Phoenix Youth Programs (Phoenix Supportive Housing) - Hunter Street', 'contactTitle': '', 'contactId': None, 'isDeleted': False, 'contactOrder': 0}]",f00ecb43-6bba-ec11-9840-000d3af44164,True,2024-01-12T19:02:13.308215
dd919964-ba68-41dc-81aa-e1911572cb1a,Shepody Food Bank,,,New Brunswick,Riverside-Albert,8 Forest Dale Road,,E4H 3Y7,45.74908,-64.74235,1668917266796711,4f50a487-2b75-4ddc-a709-e28d3ca8144a,2022-04-12T14:22:41.383225,4f50a487-2b75-4ddc-a709-e28d3ca8144a,2022-05-30T18:01:24.690956,False,,,False,False,True,,,,,,,,,,,,,,,,,,[],f80fcb43-6bba-ec11-9840-000d3af44164,True,2022-05-30T18:01:24.690956
e00e65bf-e123-40d1-a3f9-7c71bd7ebbce,Manna for Health,office@stjohnsunited.com,(902) 414-9039,Nova Scotia,Halifax,2420 Cragg Ave,,B3K 3C2,44.655148,-63.587565,512419800296023,4f50a487-2b75-4ddc-a709-e28d3ca8144a,2022-04-12T14:19:45.09743,4f50a487-2b75-4ddc-a709-e28d3ca8144a,2024-01-12T17:50:39.861544,False,,,False,False,True,,,Manna For Health,,office@stjohnsunited.com,(902) 414-9039,,,,,,,,,,,,"[{'id': '173059a9-652d-4053-9cc8-8dc929b3b161', 'branchId': 'e00e65bf-e123-40d1-a3f9-7c71bd7ebbce', 'name': 'Public Contact', 'emailAddress': 'office@stjohnsunited.com', 'phoneNumber': '(902) 414-9039', 'contactName': 'Manna For Health', 'contactTitle': '', 'contactId': None, 'isDeleted': False, 'contactOrder': 0}]",2a0ecb43-6bba-ec11-9840-000d3af44164,True,2024-01-12T17:50:39.861544
e2b70264-fa24-4a43-8a85-63a0a4172c06,The Marguerite Centre,,,Nova Scotia,Timberlea,3178 St Margaret's Bay Rd,,B3T 1J1,44.6708971,-63.7782113,294976322789907,4f50a487-2b75-4ddc-a709-e28d3ca8144a,2022-04-12T14:22:45.705152,4f50a487-2b75-4ddc-a709-e28d3ca8144a,2022-05-30T18:01:28.562381,False,,,False,False,True,,,,,,,,,,,,,,,,,,[],b610cb43-6bba-ec11-9840-000d3af44164,True,2022-05-30T18:01:28.562381
e2f1ed40-34c0-4564-ad82-f01aedb859d2,Phoenix Youth Shelter,,,Nova Scotia,Halifax,1094 Tower Rd,,B3H 2Y5,44.6356783,-63.5786632,1146408576210509,4f50a487-2b75-4ddc-a709-e28d3ca8144a,2022-04-12T14:20:06.680606,4f50a487-2b75-4ddc-a709-e28d3ca8144a,2022-05-30T17:59:05.137879,False,,,False,False,True,,,,,,,,,,,,,,,,,,[],f20ecb43-6bba-ec11-9840-000d3af44164,True,2022-05-30T17:59:05.137879
e6c8f92d-6aa1-4886-b495-f549bfd65677,Demetreous Lane,patrick902@gmail.com,(902) 407-5557,Nova Scotia,Dartmouth,7 Fundy Lane,,B3A 1P5,44.6741806,-63.5762607,1185571338915126,4f50a487-2b75-4ddc-a709-e28d3ca8144a,2022-04-12T14:18:26.173443,4f50a487-2b75-4ddc-a709-e28d3ca8144a,2024-01-12T14:16:51.196719,False,,,False,False,True,,,Demetreous Lane Food Bank,,patrick902@gmail.com,(902) 407-5557,,,,,,,,,,,,"[{'id': '3ee2ac71-af07-41dd-b638-ba71d4faa6cf', 'branchId': 'e6c8f92d-6aa1-4886-b495-f549bfd65677', 'name': 'Public Contact', 'emailAddress': 'patrick902@gmail.com', 'phoneNumber': '(902) 407-5557', 'contactName': 'Demetreous Lane Food Bank', 'contactTitle': '', 'contactId': None, 'isDeleted': False, 'contactOrder': 0}]",a40ccb43-6bba-ec11-9840-000d3af44164,True,2024-01-12T14:16:51.196719
ea092e6f-dfce-491a-8a24-4b4349de49b6,Adsum Sunflower (Formerly Centre for Women and Children),adsumcentre@adsumforwomen.org,(902) 876-5011,Nova Scotia,Lakeside,40 Flower Court Lakeside,,B3T 0M3,44.6335314,-63.7033134,395335078804465,4f50a487-2b75-4ddc-a709-e28d3ca8144a,2022-04-12T14:18:01.542732,4f50a487-2b75-4ddc-a709-e28d3ca8144a,2024-01-03T15:21:45.870697,False,,,False,False,True,,,Adsum Sunflower (Formerly Centre for Women and Children),,adsumcentre@adsumforwomen.org,(902) 876-5011,,,,,,,,,,,,"[{'id': '1e8a8c5a-7d5f-4012-95e7-45b647585eb5', 'branchId': 'ea092e6f-dfce-491a-8a24-4b4349de49b6', 'name': 'Public Contact', 'emailAddress': 'adsumcentre@adsumforwomen.org', 'phoneNumber': '(902) 876-5011', 'contactName': 'Adsum Sunflower (Formerly Centre for Women and Children)', 'contactTitle': '', 'contactId': None, 'isDeleted': False, 'contactOrder': 0}]",6c0bcb43-6bba-ec11-9840-000d3af44164,True,2024-01-03T15:21:45.870697
eb26140e-fece-4b4d-a9d5-3dc67b84c3f4,Lake Echo Community Food Bank,,,Nova Scotia,Lake Echo,3168 Highway # 7,,B3E 1E2,44.7269113,-63.3816844,682485963092089,4f50a487-2b75-4ddc-a709-e28d3ca8144a,2022-04-12T14:18:41.935822,f0bf0107-22af-4c64-afa0-0d44a761ecc1,2023-12-11T00:00:00,False,,,False,False,True,,,,,,,,,,,,,,,,,,[],de0dcb43-6bba-ec11-9840-000d3af44164,True,2022-05-30T17:58:33.395789
eed8bd0c-bb37-448e-ae1b-32a4e15ad155,Elizabeth Fry Society of Mainland NS,,,Nova Scotia,Dartmouth,1 Tulip Street,,B3A 2S3,44.6709157,-63.5695178,343593371163713,4f50a487-2b75-4ddc-a709-e28d3ca8144a,2022-04-12T14:18:31.074657,4f50a487-2b75-4ddc-a709-e28d3ca8144a,2022-05-30T17:58:04.618726,False,,,False,False,True,,,,,,,,,,,,,,,,,,[],ba0ccb43-6bba-ec11-9840-000d3af44164,True,2022-05-30T17:58:04.618726
f0cd799f-1295-4e9b-be11-aa8db7699064,Berwick Food Bank.,,,Nova Scotia,Berwick,100 South St,,B0P 1E0,45.04164,-64.73561,515419786846688,4f50a487-2b75-4ddc-a709-e28d3ca8144a,2022-04-12T14:18:10.105257,f0bf0107-22af-4c64-afa0-0d44a761ecc1,2023-12-11T00:00:00,False,,,False,False,True,,,,,,,,,,,,,,,,,,[],c60bcb43-6bba-ec11-9840-000d3af44164,True,2022-05-30T17:57:43.017467
f134efa7-89cc-4d52-84ec-a979dce018be,Pictou West Food Bank,pictoufoodbank@gmail.com,(902) 921-8463,Nova Scotia,Pictou,16 Twining St.,,B0K 1H0,45.6765555,-62.7077471,3004788133098639,f0bf0107-22af-4c64-afa0-0d44a761ecc1,2021-10-20T15:04:50.987262,4f50a487-2b75-4ddc-a709-e28d3ca8144a,2024-01-12T19:10:13.651852,False,,,True,True,True,,,Pictou West Food Bank,,pictoufoodbank@gmail.com,(902) 921-8463,,,,,,,,,,,,"[{'id': '784b9438-8616-45b7-ad39-b7c14792792e', 'branchId': 'f134efa7-89cc-4d52-84ec-a979dce018be', 'name': 'Public Contact', 'emailAddress': 'pictoufoodbank@gmail.com', 'phoneNumber': '(902) 921-8463', 'contactName': 'Pictou West Food Bank', 'contactTitle': '', 'contactId': None, 'isDeleted': False, 'contactOrder': 0}]",f60ecb43-6bba-ec11-9840-000d3af44164,True,2024-01-12T19:10:13.651852
f5eb988a-b7b4-4f3f-ab0a-a4f49f6ac45d,Connections Dartmouth,,,Nova Scotia,Dartmouth,16 Portland Street,,B2Y 1G9,44.6644731,-63.5676924,358093149595506,4f50a487-2b75-4ddc-a709-e28d3ca8144a,2022-04-12T14:18:22.55974,4f50a487-2b75-4ddc-a709-e28d3ca8144a,2022-05-30T17:58:00.250637,False,,,False,False,True,,,,,,,,,,,,,,,,,,[],800ccb43-6bba-ec11-9840-000d3af44164,True,2022-05-30T17:58:00.250637
f5f77c3c-5466-47ca-a937-3632565e5557,Parish of Saint George (Saint George's Soup Kitchen),office@roundchurch.ca,(902) 423-1059 ext. 1,Nova Scotia,Halifax,2222 Brunswick Street,,B3K 2Z3,44.6534466,-63.5828838,445253877358319,4f50a487-2b75-4ddc-a709-e28d3ca8144a,2022-04-12T14:19:44.363265,4f50a487-2b75-4ddc-a709-e28d3ca8144a,2024-01-12T21:07:41.364627,False,,,False,False,True,,,St. George's Soup Kitchen,,office@roundchurch.ca,(902) 423-1059 ext. 1,,,,,,,,,,,,"[{'id': '62501028-04d1-43f3-b331-45c057737482', 'branchId': 'f5f77c3c-5466-47ca-a937-3632565e5557', 'name': 'Public Contact', 'emailAddress': 'office@roundchurch.ca', 'phoneNumber': '(902) 423-1059 ext. 1', 'contactName': ""St. George's Soup Kitchen"", 'contactTitle': '', 'contactId': None, 'isDeleted': False, 'contactOrder': 0}]",d40ecb43-6bba-ec11-9840-000d3af44164,True,2024-01-12T21:07:41.364627
fd1998ab-69f4-4b96-91a0-ef872b97d08c,Adsum Court,adsumcourt@adsumforwomen.org,(902) 442-5059,Nova Scotia,Halifax,107 Albro Lake Rd,Unit 17,B3K 2Z4,44.6803235,-63.5836487,1017934112480634,4f50a487-2b75-4ddc-a709-e28d3ca8144a,2022-04-12T14:18:01.366433,4f50a487-2b75-4ddc-a709-e28d3ca8144a,2024-01-03T14:18:46.758705,False,,,False,False,True,,,Adsum Court,,adsumcourt@adsumforwomen.org,(902) 442-5059,,,,,,,,,,,,"[{'id': 'fe1cf35f-983c-4cfd-bc3d-428d61245d5d', 'branchId': 'fd1998ab-69f4-4b96-91a0-ef872b97d08c', 'name': 'Public Contact', 'emailAddress': 'adsumcourt@adsumforwomen.org', 'phoneNumber': '(902) 442-5059', 'contactName': 'Adsum Court', 'contactTitle': '', 'contactId': None, 'isDeleted': False, 'contactOrder': 0}]",6a0bcb43-6bba-ec11-9840-000d3af44164,True,2024-01-03T14:18:46.758705
fdf2287d-9cb8-49b1-9f31-5722bcb1bb1d,Mahone Bay Area Food Bank Asso.,,,Nova Scotia,Mahone Bay,45 School Street,,B0J 2E0,44.4464709,-64.3806472,348047193958398,4f50a487-2b75-4ddc-a709-e28d3ca8144a,2022-04-12T14:18:46.753384,f0bf0107-22af-4c64-afa0-0d44a761ecc1,2023-12-11T00:00:00,False,,,False,False,True,,,,,,,,,,,,,,,,,,[],1e0ecb43-6bba-ec11-9840-000d3af44164,True,2022-05-30T17:58:38.044507
feaf9b90-8d9b-4f56-9c59-b3d7a626fcce,SUNSCAD (Student Union of NS College of Art & Design),,,Nova Scotia,Halifax,5163 Duke St,,B3J 3J6,44.6494952,-63.5741885,1021051431867190,4f50a487-2b75-4ddc-a709-e28d3ca8144a,2022-04-12T14:22:44.749957,4f50a487-2b75-4ddc-a709-e28d3ca8144a,2022-05-30T18:01:27.397251,False,,,False,False,True,,,,,,,,,,,,,,,,,,[],8a10cb43-6bba-ec11-9840-000d3af44164,True,2022-05-30T18:01:27.397251
ffe29218-21c4-4184-ba3f-4a26143969d6,Mulgrave Park Foodbank,,,Nova Scotia,Halifax,27 Jarvis Lane,,B3K 3J3,44.6693865,-63.6029041,371457544868283,4f50a487-2b75-4ddc-a709-e28d3ca8144a,2022-04-12T14:19:55.656853,f0bf0107-22af-4c64-afa0-0d44a761ecc1,2023-12-11T00:00:00,False,,,False,False,True,,,,,,,,,,,,,,,,,,[],840ecb43-6bba-ec11-9840-000d3af44164,True,2022-05-30T17:58:49.299386
0e7895f8-6cd9-4408-ad3a-3451be35f06c,S.P.O.T. (Support People of Today),,,New Brunswick,Petitcodiac,5 Mill Road,,E4Z 4M8,45.9259054,-65.1855253,517048426597669,4f50a487-2b75-4ddc-a709-e28d3ca8144a,2022-04-12T14:19:49.228069,4f50a487-2b75-4ddc-a709-e28d3ca8144a,2022-05-30T18:00:15.414004,False,,,False,False,True,,,,,,,,,,,,,,,,,,[],4e0fcb43-6bba-ec11-9840-000d3af44164,True,2022-05-30T18:00:15.414004
110be470-092a-4639-84e2-72ab9fe23871,Greater Blackville Resource Centre,,,New Brunswick,Upper Blackville,12073 Rte 8,,E9B 1Z8,46.6480471,-65.8652139,328314376061801,4f50a487-2b75-4ddc-a709-e28d3ca8144a,2022-04-12T14:18:21.47544,4f50a487-2b75-4ddc-a709-e28d3ca8144a,2022-05-30T17:58:22.903373,False,,,False,False,True,,,,,,,,,,,,,,,,,,[],3c0dcb43-6bba-ec11-9840-000d3af44164,True,2022-05-30T17:58:22.903373
19c68e08-03e4-4222-be27-8781bd93ea11,Salvation Army Sussex,,,New Brunswick,Sussex,79 Main Street,,E4E 1S8,45.7248131,-65.5324379,1057661581517193,4f50a487-2b75-4ddc-a709-e28d3ca8144a,2022-04-12T14:22:45.3796,4f50a487-2b75-4ddc-a709-e28d3ca8144a,2022-05-30T18:01:24.476309,False,,,False,False,True,,,,,,,,,,,,,,,,,,[],9210cb43-6bba-ec11-9840-000d3af44164,True,2022-05-30T18:01:24.476309
39e74eee-e86a-498f-8a6b-00327db022b1,Volunteer Family Services Inc / Valley Food Bank,vfsfood@nb.aibn.com,5063284417,NB,Woodstock,162 Houlton Street,,E7M 1Z1,46.1456358,-67.5870367,670578747090994,,2020-03-06T18:27:10.431123,f0bf0107-22af-4c64-afa0-0d44a761ecc1,2024-04-16T15:43:55.877541,False,,,True,True,True,,,,,,,,,,,,,,,,,,[],2c11cb43-6bba-ec11-9840-000d3af44164,True,2022-05-30T18:01:31.288724
69343ef8-921c-4cf5-93dd-3cf9da9d7f4b,Greener Village Community Food Centre,director@greenervillage.org,,New Brunswick,Fredericton,686 Riverside Drive,,E3A 8C2,45.9355359,-66.6088878,2636987503253296,,2020-03-06T18:27:10.427259,f0bf0107-22af-4c64-afa0-0d44a761ecc1,2023-12-13T00:00:00,False,,,True,True,True,,,,,,,,,,,,,,,,,,[],420dcb43-6bba-ec11-9840-000d3af44164,True,2022-05-30T17:58:22.797505
6e5f0f95-ce34-4fae-9a03-6871195f573a,Making A Difference Food Bank,LMF@ROGERS.COM,(506)273-6018,NB,Perth-Andover,1345 Aroostook Road,,E7H 1A7,46.7550254,-67.6983817,1149753162426261,4f50a487-2b75-4ddc-a709-e28d3ca8144a,2022-04-12T14:19:43.405574,f0bf0107-22af-4c64-afa0-0d44a761ecc1,2024-04-13T00:20:34.247004,False,,,True,True,True,,,,,,,,,,,,,,,,,,[],260ecb43-6bba-ec11-9840-000d3af44164,True,2022-05-30T17:58:37.864965
70be565e-da44-476d-bc81-590076202002,Comite d'Entraide d'Allardville,,,New Brunswick,Allardville,4593 Route 134,App 1,E8L 1E1,47.4741745,-65.4917509,1382947765489448,4f50a487-2b75-4ddc-a709-e28d3ca8144a,2022-04-12T14:18:12.913373,4f50a487-2b75-4ddc-a709-e28d3ca8144a,2022-05-30T17:57:58.549135,False,,,False,False,True,,,,,,,,,,,,,,,,,,[],680ccb43-6bba-ec11-9840-000d3af44164,True,2022-05-30T17:57:58.549135
793e318e-cb53-40dc-a3dc-850c5daafd9a,Le Comit de Bnvolat de Rogersville Inc,,,New Brunswick,Rogersville,11133 Rue Principale,Unit 12,E4Y 2N4,46.733734,-65.4283333,654545542314892,4f50a487-2b75-4ddc-a709-e28d3ca8144a,2022-04-12T14:18:37.062483,4f50a487-2b75-4ddc-a709-e28d3ca8144a,2022-05-30T17:58:33.685532,False,,,False,False,True,,,,,,,,,,,,,,,,,,[],ee0dcb43-6bba-ec11-9840-000d3af44164,True,2022-05-30T17:58:33.685532
9134f7dd-1fe1-4d61-b28d-762a903f8546,Chipman Community Care Inc,communitycareinc@hotmail.com,506-339-5565,NB,Chipman,93 Bridge Street,,E4A 1R8,46.1792926,-65.8860265,405424670935318,4f50a487-2b75-4ddc-a709-e28d3ca8144a,2022-04-12T14:18:17.487121,f0bf0107-22af-4c64-afa0-0d44a761ecc1,2024-04-09T23:37:59.702119,False,,,True,True,True,,,,,,,,,,,,,,,,,,[],4a0ccb43-6bba-ec11-9840-000d3af44164,True,2022-05-30T17:57:56.468159
95cd7ca8-b942-46cc-aaa3-c06457fd5e1b,Grand Falls Regional Food Bank,bargs.melinda@gmail.com,506-473-2001,NB,Grand Falls,363 Portage Road,,E3Z 1M2,47.0345384,-67.7452436,2694840074170261,,2020-03-06T18:27:10.427031,f0bf0107-22af-4c64-afa0-0d44a761ecc1,2024-03-06T18:40:54.536622,False,,,True,True,True,,,,,,,,,,,,,,,,,,[],380dcb43-6bba-ec11-9840-000d3af44164,True,2022-05-30T17:58:22.400183
9fc33b43-72e1-4cff-bdfc-003da967b428,Village of Hope,,,New Brunswick,Upper Tracy,1100 Back Tracy Road,,E5L 1H7,45.66927,-66.74864,672162900703644,4f50a487-2b75-4ddc-a709-e28d3ca8144a,2022-04-12T14:22:50.843416,4f50a487-2b75-4ddc-a709-e28d3ca8144a,2022-05-30T18:01:32.646687,False,,,False,False,True,,,,,,,,,,,,,,,,,,[],2811cb43-6bba-ec11-9840-000d3af44164,True,2022-05-30T18:01:32.646687
ae5744e1-a9be-455f-89ea-fa680a2ed187,Miramichi Community Food Bank Inc,miramichifoodbank@gmail.com,,New Brunswick,Miramichi,87 Henry Street,,E1V 2N4,47.0003787,-65.5651782,681412976010300,,2020-03-06T18:27:10.448497,4f50a487-2b75-4ddc-a709-e28d3ca8144a,2022-05-30T17:58:44.983629,False,,,True,True,True,,,,,,,,,,,,,,,,,,[],560ecb43-6bba-ec11-9840-000d3af44164,True,2022-05-30T17:58:44.983629
af75dc17-4c6b-4c90-a032-0a3b1c3ab443,Fredericton Community Kitchens Inc,operations@frederictontoncommunitykitchen.com,,New Brunswick,Fredericton,65 Brunswick Street,,E3B 1G5,45.9648011,-66.6533318,657875931456389,,2020-03-06T18:27:10.426874,4f50a487-2b75-4ddc-a709-e28d3ca8144a,2022-05-30T17:58:11.578707,False,,,True,True,True,,,,,,,,,,,,,,,,,,[],040dcb43-6bba-ec11-9840-000d3af44164,True,2022-05-30T17:58:11.578707
c5d7ba99-6c9c-40a4-9b42-bb2a93ef56df,Central NB Self Help Group,centralnbselfhelp@yahoo.ca,(506) 365-4312,NB,Doaktown,7a Miramichi Street,,E9C 1C9,46.55416229999999,-66.1386366,1158681434904927,4f50a487-2b75-4ddc-a709-e28d3ca8144a,2022-04-12T14:18:10.086028,f0bf0107-22af-4c64-afa0-0d44a761ecc1,2023-12-11T00:00:00,False,,,True,False,True,,,,,,,,,,,,,,,,,,[],2c0ccb43-6bba-ec11-9840-000d3af44164,True,2022-05-30T17:57:53.347891
c72b0c29-0d18-4f12-9048-158aece65581,Salvation Army - Fredericton,,,New Brunswick,Fredericton,531 St. Mary's Street,,E3A 8H4,45.9720485,-66.6309804,506339314555830,4f50a487-2b75-4ddc-a709-e28d3ca8144a,2022-04-12T14:22:49.254413,f0bf0107-22af-4c64-afa0-0d44a761ecc1,2023-12-13T00:00:00,False,,,False,False,True,,,,,,,,,,,,,,,,,,[],e410cb43-6bba-ec11-9840-000d3af44164,True,2022-05-30T18:01:20.147329
d3c4b963-9b37-4808-a2fd-7870ef694ffc,Just Friends Food Bank,,,New Brunswick,Stanley,30 Centennial Street,,E6B 1A8,46.28319,-66.74746,377835551019941,4f50a487-2b75-4ddc-a709-e28d3ca8144a,2022-04-12T14:18:31.542291,f0bf0107-22af-4c64-afa0-0d44a761ecc1,2023-12-13T00:00:00,False,,,False,False,True,,,,,,,,,,,,,,,,,,[],ac0dcb43-6bba-ec11-9840-000d3af44164,True,2022-05-30T17:58:28.590794
dbd15662-4e0f-4cbb-b1d7-17b5cb23e14e,Keeper of the Light Food Bank,,,New Brunswick,Plaster Rock,205 Main Street,,E7G 2G8,46.90399,-67.39684,843971786561820,4f50a487-2b75-4ddc-a709-e28d3ca8144a,2022-04-12T14:18:23.421521,4f50a487-2b75-4ddc-a709-e28d3ca8144a,2022-05-30T17:58:28.969782,False,,,False,False,True,,,,,,,,,,,,,,,,,,[],ba0dcb43-6bba-ec11-9840-000d3af44164,True,2022-05-30T17:58:28.969782
e2f71616-6823-4d92-913f-c08adbd3d1aa,Sussex Sharing Club Inc,sussexsharingclub@nb.aibn.com,,New Brunswick,Sussex,26 Eveleigh St,,E4E 2N8,45.7258593,-65.4965969,2673679539582261,,2020-03-06T18:27:10.430485,f0bf0107-22af-4c64-afa0-0d44a761ecc1,2023-12-11T00:00:00,False,,,True,True,True,,,,,,,,,,,,,,,,,,[],9410cb43-6bba-ec11-9840-000d3af44164,True,2022-05-30T18:01:27.451788
e7b73cff-1bb7-4167-b81f-dc275df5a2fb,Community Resources Centre (Minto) Inc,,,New Brunswick,Minto,19 Union Street,,E4B 2N3,46.0708001,-66.0613977,809409166701038,4f50a487-2b75-4ddc-a709-e28d3ca8144a,2022-04-12T14:18:22.239318,f0bf0107-22af-4c64-afa0-0d44a761ecc1,2023-12-11T00:00:00,False,,,False,False,True,,,,,,,,,,,,,,,,,,[],780ccb43-6bba-ec11-9840-000d3af44164,True,2022-05-30T17:58:00.854284
fc70e97b-1130-4e3d-9902-9228502c21db,Helpline Inc (Oromocto Food Bank),ofb@nb.aibn.com,(506) 357-3461,NB,Oromocto,101 D\'amours Street,,E2V 0G5,45.8386548,-66.4921585,238946710509724,,2020-03-06T18:27:10.428279,f0bf0107-22af-4c64-afa0-0d44a761ecc1,2024-01-18T20:25:55.143828,False,,,True,True,True,,,,,,,,,,,,,,,,,,[],6c0dcb43-6bba-ec11-9840-000d3af44164,True,2022-05-30T17:58:23.614496
08e492d1-7664-4a0b-a7c3-2c614ed22207,Emmanuel Food Bank,,,Nova Scotia,Halifax,322 Herring Cove Rd,,B3R 1V4,44.6140768,-63.6158084,1168668407292665,4f50a487-2b75-4ddc-a709-e28d3ca8144a,2022-04-12T14:18:22.972386,f0bf0107-22af-4c64-afa0-0d44a761ecc1,2023-12-11T00:00:00,False,,,False,False,True,,,,,,,,,,,,,,,,,,[],c20ccb43-6bba-ec11-9840-000d3af44164,True,2022-05-30T17:58:05.434795
142cfe67-6ece-43d4-a921-369a9e69560e,Highland Park Junior High School,hpjh@hrce.ca,9024935124,Nova Scotia,Halifax,3479 Robie Street,,B3K 4S4,44.6648859,-63.609312,941738246491102,4f50a487-2b75-4ddc-a709-e28d3ca8144a,2022-04-12T14:18:35.451284,4f50a487-2b75-4ddc-a709-e28d3ca8144a,2024-01-12T17:11:46.749862,False,,,False,False,True,,,Highland Park Junior High School,,hpjh@hrce.ca,9024935124,,,,,,,,,,,,"[{'id': '703d1e15-08f8-4d8a-a104-9c920075a5cb', 'branchId': '142cfe67-6ece-43d4-a921-369a9e69560e', 'name': 'Public Contact', 'emailAddress': 'hpjh@hrce.ca', 'phoneNumber': '9024935124', 'contactName': 'Highland Park Junior High School', 'contactTitle': '', 'contactId': None, 'isDeleted': False, 'contactOrder': 0}]",740dcb43-6bba-ec11-9840-000d3af44164,True,2024-01-12T17:11:46.749862
1f6d57eb-20e4-44cc-8f01-840e8f297a47,Bayers Westwood Family Resource Centre,ed@bayerswestwoodfrc.com,,Nova Scotia,Halifax,3499 Mcalpine Ave,,B3L 3X9,44.6578883,-63.6214058,750800655466723,f0bf0107-22af-4c64-afa0-0d44a761ecc1,2020-09-28T17:52:17.620306,f0bf0107-22af-4c64-afa0-0d44a761ecc1,2023-12-11T00:00:00,False,,,False,True,True,,,,Executive Director,ed@bayerswestwoodfrc.com,,,,,,,,,,,,,[],bc0bcb43-6bba-ec11-9840-000d3af44164,True,2022-05-30T17:57:43.536959
2fb0586a-c1f2-42fb-a19e-d2f0a1e96967,St. Agnes Junior High School Breakfast Program,,,Nova Scotia,Halifax,6981 Mumford Rd,,B3L 2H7,44.6474983,-63.6181465,355657469688285,4f50a487-2b75-4ddc-a709-e28d3ca8144a,2022-04-12T14:22:42.62544,4f50a487-2b75-4ddc-a709-e28d3ca8144a,2022-05-30T18:01:25.329369,False,,,False,False,True,,,,,,,,,,,,,,,,,,[],3010cb43-6bba-ec11-9840-000d3af44164,True,2022-05-30T18:01:25.32937
41e7b292-0f4e-41e1-bfc9-5a1f84c6dff5,MetroWorks Employment Association,,,Nova Scotia,Halifax,7071 Bayers Road,Suite LL05,B3L 2C2,44.6543476,-63.6275685,1780000249009241,4f50a487-2b75-4ddc-a709-e28d3ca8144a,2022-04-12T14:18:42.053298,4f50a487-2b75-4ddc-a709-e28d3ca8144a,2022-05-30T17:58:42.318427,False,,,False,False,True,,,,,,,,,,,,,,,,,,[],4e0ecb43-6bba-ec11-9840-000d3af44164,True,2022-05-30T17:58:42.318427
4288f100-6682-499e-b93f-8b20aab0d9fe,Family SOS Association,info@familysos.ca,(902) 455-5515,Nova Scotia,Halifax,4 Cranberry Court,,B3R 2E5,44.5999169,-63.6131289,1104517420398643,4f50a487-2b75-4ddc-a709-e28d3ca8144a,2022-04-12T14:18:21.962952,4f50a487-2b75-4ddc-a709-e28d3ca8144a,2024-01-12T16:36:03.775455,False,,,False,False,True,,,Family SOS Association,,info@familysos.ca,(902) 455-5515,,,,,,,,,,,,"[{'id': '6b20745e-e481-4da6-ab65-84dcc51ff270', 'branchId': '4288f100-6682-499e-b93f-8b20aab0d9fe', 'name': 'Public Contact', 'emailAddress': 'info@familysos.ca', 'phoneNumber': '(902) 455-5515', 'contactName': 'Family SOS Association', 'contactTitle': '', 'contactId': None, 'isDeleted': False, 'contactOrder': 0}]",cc0ccb43-6bba-ec11-9840-000d3af44164,True,2024-01-12T16:36:03.775455
58b4f37b-f21a-4df5-85e0-25532bcde8ce,Beacon House Interfaith Society,,,Nova Scotia,Lower Sackville,470 Cobequid Road,,B4C 4E8,44.7651375,-63.6497428,596456928444538,4f50a487-2b75-4ddc-a709-e28d3ca8144a,2022-04-12T14:18:08.049942,f0bf0107-22af-4c64-afa0-0d44a761ecc1,2023-12-11T00:00:00,False,,,False,False,True,,,,,,,,,,,,,,,,,,[],be0bcb43-6bba-ec11-9840-000d3af44164,True,2022-05-30T17:57:44.636184
5c0616d2-401b-4700-9eb2-4a453e145619,St. Paul's Family Resource Institute,,,Nova Scotia,Halifax,173 Old Sambro Road,,B3R 2H6,44.6103731,-63.6249876,392930195735522,4f50a487-2b75-4ddc-a709-e28d3ca8144a,2022-04-12T14:22:43.463035,f0bf0107-22af-4c64-afa0-0d44a761ecc1,2023-12-11T00:00:00,False,,,False,False,True,,,,,,,,,,,,,,,,,,[],6010cb43-6bba-ec11-9840-000d3af44164,True,2022-05-30T18:01:26.710471
5d34bf0e-9b42-4e18-b90d-ac79a037a279,Lockview High School Food Bank,,,Nova Scotia,Fall River,148 Lockview Rd,,B2T 1J1,44.8234569,-63.6195633,5118719684884684,4f50a487-2b75-4ddc-a709-e28d3ca8144a,2022-04-12T14:18:42.784173,4f50a487-2b75-4ddc-a709-e28d3ca8144a,2022-05-30T17:58:36.183361,False,,,False,False,True,,,,,,,,,,,,,,,,,,[],080ecb43-6bba-ec11-9840-000d3af44164,True,2022-05-30T17:58:36.183362
6627f26e-0a35-4ccf-b915-4c8801b44e0e,St. Margaret's Bay Food Bank,smbfoodbank@gmail.com,,Nova Scotia,Upper Tantallon,13495 Peggy's Cove Rd,,B3Z 2J4,44.6858524,-63.8852666,846927212923613,f0bf0107-22af-4c64-afa0-0d44a761ecc1,2021-06-30T15:24:24.381762,f0bf0107-22af-4c64-afa0-0d44a761ecc1,2023-12-11T00:00:00,False,,,True,True,True,,,,,,,,,,,,,,,,,,[],4c10cb43-6bba-ec11-9840-000d3af44164,True,2022-05-30T18:01:25.878988
7cda0552-5eb3-4c17-b177-0c5902404019,HALIFAX WEST ECUMENICAL FOOD BANK,harold.smith39@icloud.com,(902) 445-3469,Nova Scotia,Halifax,50 Gesner St.,C/O Salvation Army,B3M 3H2,44.6509328,-63.6489095,361992859030979,4f50a487-2b75-4ddc-a709-e28d3ca8144a,2022-04-12T14:18:31.179587,4f50a487-2b75-4ddc-a709-e28d3ca8144a,2024-01-12T16:57:59.799683,False,,,False,False,True,,,Halifax West Ecumenical Food Bank,,harold.smith39@icloud.com,(902) 445-3469,,,,,,,,,,,,"[{'id': '6fd90574-b5ba-4fcf-8111-361c490643f7', 'branchId': '7cda0552-5eb3-4c17-b177-0c5902404019', 'name': 'Public Contact', 'emailAddress': 'harold.smith39@icloud.com', 'phoneNumber': '(902) 445-3469', 'contactName': 'Halifax West Ecumenical Food Bank', 'contactTitle': '', 'contactId': None, 'isDeleted': False, 'contactOrder': 0}]",4e0dcb43-6bba-ec11-9840-000d3af44164,True,2024-01-12T16:57:59.799683
8155d852-2346-425c-b5de-33c81cec1021,St. Mark's Food Bank,,,Nova Scotia,Halifax,5522 Russell St,,B3K 1X2,44.6611013,-63.597491,749259369722624,4f50a487-2b75-4ddc-a709-e28d3ca8144a,2022-04-12T14:22:43.006033,f0bf0107-22af-4c64-afa0-0d44a761ecc1,2023-12-11T00:00:00,False,,,False,False,True,,,,,,,,,,,,,,,,,,[],5210cb43-6bba-ec11-9840-000d3af44164,True,2022-05-30T18:01:26.635479
87376df7-c818-4c40-a8a7-a82365fe9268,Westend Community Food Bank,,,Nova Scotia,Halifax,3495 Mcalpine Avenue,,B3L 3X9,44.6577949,-63.6214454,1814675008738809,4f50a487-2b75-4ddc-a709-e28d3ca8144a,2022-04-12T14:22:50.902897,f0bf0107-22af-4c64-afa0-0d44a761ecc1,2023-12-13T00:00:00,False,,,False,False,True,,,,,,,,,,,,,,,,,,[],4c11cb43-6bba-ec11-9840-000d3af44164,True,2022-05-30T18:01:33.278119
9c60438b-34ab-44a1-8c85-09caa65e76ef,FEED Nova Scotia,kcasey@feednovascotia.ca,,Nova Scotia,Dartmouth,67 Wright Ave,,B3B 1H2,44.7036847,-63.5995826,125496022878984,f0bf0107-22af-4c64-afa0-0d44a761ecc1,2021-04-01T13:04:48.666586,f0bf0107-22af-4c64-afa0-0d44a761ecc1,2023-12-13T00:00:00,False,,,True,True,True,,,,,,,,,,,,,,,,,,[],d20ccb43-6bba-ec11-9840-000d3af44164,True,2022-05-30T17:58:07.498055
a1e80c56-3920-4f1c-9d21-fdb1f0d340a2,Mount Saint Vincent University Student Food Bank,,,Nova Scotia,Halifax,166 Bedford Highway,,B3M 2J6,44.6720401,-63.6450076,1169740143792849,4f50a487-2b75-4ddc-a709-e28d3ca8144a,2022-04-12T14:19:53.454018,4f50a487-2b75-4ddc-a709-e28d3ca8144a,2022-05-30T17:58:47.001745,False,,,False,False,True,,,,,,,,,,,,,,,,,,[],800ecb43-6bba-ec11-9840-000d3af44164,True,2022-05-30T17:58:47.001745
a75b4133-9af0-40d7-ae69-9b977a663f28,Stepping Stone Association,,,Nova Scotia,Dartmouth,9 Ferguson Road,,B3A 4J8,44.6809186,-63.5968256,3257759957786656,4f50a487-2b75-4ddc-a709-e28d3ca8144a,2022-04-12T14:22:44.31232,4f50a487-2b75-4ddc-a709-e28d3ca8144a,2022-05-30T18:01:27.307268,False,,,False,False,True,,,,,,,,,,,,,,,,,,[],7610cb43-6bba-ec11-9840-000d3af44164,True,2022-05-30T18:01:27.307269
c3c08d9b-acfb-487a-8d9f-2cf8fd2be767,Gateway Community Church,,,Nova Scotia,Lower Sackville,10 Beaver Bank Road,,B4E 1G3,44.777835,-63.6954151,1380025629108578,4f50a487-2b75-4ddc-a709-e28d3ca8144a,2022-04-12T14:18:29.958248,f0bf0107-22af-4c64-afa0-0d44a761ecc1,2023-12-11T00:00:00,False,,,False,False,True,,,,,,,,,,,,,,,,,,[],140dcb43-6bba-ec11-9840-000d3af44164,True,2022-05-30T17:58:16.814536
ca0f8771-6aab-4220-bdb9-ee122226c44c,Shelter Nova Scotia  - Nehiley House,,,Nova Scotia,Halifax,3170 Romans Avenue,,B3L 3W9,44.6500246,-63.6217978,288128310181529,4f50a487-2b75-4ddc-a709-e28d3ca8144a,2022-04-12T14:22:41.273161,4f50a487-2b75-4ddc-a709-e28d3ca8144a,2022-05-30T18:01:25.051871,False,,,False,False,True,,,,,,,,,,,,,,,,,,[],f20fcb43-6bba-ec11-9840-000d3af44164,True,2022-05-30T18:01:25.051871
d11b461d-c317-45c5-900b-839024b8201d,Shelter Nova Scotia  - Barry House,,,Nova Scotia,Halifax,2706 Gottigen Street,,B3K 3C7,44.6586117,-63.5933428,348758887061600,4f50a487-2b75-4ddc-a709-e28d3ca8144a,2022-04-12T14:22:41.603041,4f50a487-2b75-4ddc-a709-e28d3ca8144a,2022-05-30T18:01:24.645876,False,,,False,False,True,,,,,,,,,,,,,,,,,,[],f00fcb43-6bba-ec11-9840-000d3af44164,True,2022-05-30T18:01:24.645876
d9ffba01-b489-4722-b533-809292963d96,Phoenix Youth Programs (House) - Hunter Street,phoenix@phoenixyouth.ca,(902) 422-5583,Nova Scotia,Halifax,2385 Hunter St,,B3K 4V7,44.6520364,-63.5952412,685333669374590,4f50a487-2b75-4ddc-a709-e28d3ca8144a,2022-04-12T14:20:06.091507,4f50a487-2b75-4ddc-a709-e28d3ca8144a,2024-01-12T19:02:13.308214,False,,,False,False,True,,,Phoenix Youth Programs (Phoenix Supportive Housing) - Hunter Street,,phoenix@phoenixyouth.ca,(902) 422-5583,,,,,,,,,,,,"[{'id': 'ec951f82-24ad-4349-9ff8-04e570871c8c', 'branchId': 'd9ffba01-b489-4722-b533-809292963d96', 'name': 'Public Contact', 'emailAddress': 'phoenix@phoenixyouth.ca', 'phoneNumber': '(902) 422-5583', 'contactName': 'Phoenix Youth Programs (Phoenix Supportive Housing) - Hunter Street', 'contactTitle': '', 'contactId': None, 'isDeleted': False, 'contactOrder': 0}]",f00ecb43-6bba-ec11-9840-000d3af44164,True,2024-01-12T19:02:13.308215
e2b70264-fa24-4a43-8a85-63a0a4172c06,The Marguerite Centre,,,Nova Scotia,Timberlea,3178 St Margaret's Bay Rd,,B3T 1J1,44.6708971,-63.7782113,294976322789907,4f50a487-2b75-4ddc-a709-e28d3ca8144a,2022-04-12T14:22:45.705152,4f50a487-2b75-4ddc-a709-e28d3ca8144a,2022-05-30T18:01:28.562381,False,,,False,False,True,,,,,,,,,,,,,,,,,,[],b610cb43-6bba-ec11-9840-000d3af44164,True,2022-05-30T18:01:28.562381
ea092e6f-dfce-491a-8a24-4b4349de49b6,Adsum Sunflower (Formerly Centre for Women and Children),adsumcentre@adsumforwomen.org,(902) 876-5011,Nova Scotia,Lakeside,40 Flower Court Lakeside,,B3T 0M3,44.6335314,-63.7033134,395335078804465,4f50a487-2b75-4ddc-a709-e28d3ca8144a,2022-04-12T14:18:01.542732,4f50a487-2b75-4ddc-a709-e28d3ca8144a,2024-01-03T15:21:45.870697,False,,,False,False,True,,,Adsum Sunflower (Formerly Centre for Women and Children),,adsumcentre@adsumforwomen.org,(902) 876-5011,,,,,,,,,,,,"[{'id': '1e8a8c5a-7d5f-4012-95e7-45b647585eb5', 'branchId': 'ea092e6f-dfce-491a-8a24-4b4349de49b6', 'name': 'Public Contact', 'emailAddress': 'adsumcentre@adsumforwomen.org', 'phoneNumber': '(902) 876-5011', 'contactName': 'Adsum Sunflower (Formerly Centre for Women and Children)', 'contactTitle': '', 'contactId': None, 'isDeleted': False, 'contactOrder': 0}]",6c0bcb43-6bba-ec11-9840-000d3af44164,True,2024-01-03T15:21:45.870697
ffe29218-21c4-4184-ba3f-4a26143969d6,Mulgrave Park Foodbank,,,Nova Scotia,Halifax,27 Jarvis Lane,,B3K 3J3,44.6693865,-63.6029041,371457544868283,4f50a487-2b75-4ddc-a709-e28d3ca8144a,2022-04-12T14:19:55.656853,f0bf0107-22af-4c64-afa0-0d44a761ecc1,2023-12-11T00:00:00,False,,,False,False,True,,,,,,,,,,,,,,,,,,[],840ecb43-6bba-ec11-9840-000d3af44164,True,2022-05-30T17:58:49.299386
